<?xml version="1.0" encoding="UTF-8" ?>
<gpx version="1.1" xmlns:xsi="http://www.w3.org/2001/XMLSchema-instance"
    xmlns="http://www.topografix.com/GPX/1/1"
    xsi:schemaLocation="http://www.topografix.com/GPX/1/1 http://www.topografix.com/GPX/1/1/gpx.xsd"
    creator="Openrunner - https://www.openrunner.com" >	<trk>
	                   <name>New route-24167510</name>
						<trkseg>
					<trkpt lat="50.339410" lon="4.322280">
						<ele>202</ele>
						<time>2026-07-01T11:09:32Z</time>
					</trkpt>
					<trkpt lat="50.339400" lon="4.322310">
						<ele>202</ele>
						<time>2026-07-01T11:09:35Z</time>
					</trkpt>
					<trkpt lat="50.339200" lon="4.323420">
						<ele>203</ele>
						<time>2026-07-01T11:11:13Z</time>
					</trkpt>
					<trkpt lat="50.339140" lon="4.323380">
						<ele>203</ele>
						<time>2026-07-01T11:11:22Z</time>
					</trkpt>
					<trkpt lat="50.339120" lon="4.323530">
						<ele>202</ele>
						<time>2026-07-01T11:11:35Z</time>
					</trkpt>
					<trkpt lat="50.339020" lon="4.324230">
						<ele>200</ele>
						<time>2026-07-01T11:12:36Z</time>
					</trkpt>
					<trkpt lat="50.339000" lon="4.324430">
						<ele>200</ele>
						<time>2026-07-01T11:12:53Z</time>
					</trkpt>
					<trkpt lat="50.338850" lon="4.325220">
						<ele>198</ele>
						<time>2026-07-01T11:14:03Z</time>
					</trkpt>
					<trkpt lat="50.338570" lon="4.326830">
						<ele>198</ele>
						<time>2026-07-01T11:16:26Z</time>
					</trkpt>
					<trkpt lat="50.337810" lon="4.331000">
						<ele>200</ele>
						<time>2026-07-01T11:22:35Z</time>
					</trkpt>
					<trkpt lat="50.337790" lon="4.331000">
						<ele>200</ele>
						<time>2026-07-01T11:22:38Z</time>
					</trkpt>
					<trkpt lat="50.337710" lon="4.331030">
						<ele>200</ele>
						<time>2026-07-01T11:22:49Z</time>
					</trkpt>
					<trkpt lat="50.337590" lon="4.331150">
						<ele>199</ele>
						<time>2026-07-01T11:23:08Z</time>
					</trkpt>
					<trkpt lat="50.337100" lon="4.331700">
						<ele>198</ele>
						<time>2026-07-01T11:24:28Z</time>
					</trkpt>
					<trkpt lat="50.336670" lon="4.332370">
						<ele>197</ele>
						<time>2026-07-01T11:25:49Z</time>
					</trkpt>
					<trkpt lat="50.336180" lon="4.333180">
						<ele>195</ele>
						<time>2026-07-01T11:27:24Z</time>
					</trkpt>
					<trkpt lat="50.336010" lon="4.333510">
						<ele>194</ele>
						<time>2026-07-01T11:28:00Z</time>
					</trkpt>
					<trkpt lat="50.335950" lon="4.333670">
						<ele>194</ele>
						<time>2026-07-01T11:28:16Z</time>
					</trkpt>
					<trkpt lat="50.335910" lon="4.333840">
						<ele>193</ele>
						<time>2026-07-01T11:28:31Z</time>
					</trkpt>
					<trkpt lat="50.335790" lon="4.334560">
						<ele>194</ele>
						<time>2026-07-01T11:29:35Z</time>
					</trkpt>
					<trkpt lat="50.335620" lon="4.335450">
						<ele>195</ele>
						<time>2026-07-01T11:30:54Z</time>
					</trkpt>
					<trkpt lat="50.335560" lon="4.335660">
						<ele>196</ele>
						<time>2026-07-01T11:31:13Z</time>
					</trkpt>
					<trkpt lat="50.335470" lon="4.335830">
						<ele>196</ele>
						<time>2026-07-01T11:31:32Z</time>
					</trkpt>
					<trkpt lat="50.335400" lon="4.335940">
						<ele>195</ele>
						<time>2026-07-01T11:31:45Z</time>
					</trkpt>
					<trkpt lat="50.335210" lon="4.336110">
						<ele>195</ele>
						<time>2026-07-01T11:32:15Z</time>
					</trkpt>
					<trkpt lat="50.334030" lon="4.337150">
						<ele>192</ele>
						<time>2026-07-01T11:35:15Z</time>
					</trkpt>
					<trkpt lat="50.333900" lon="4.337320">
						<ele>191</ele>
						<time>2026-07-01T11:35:38Z</time>
					</trkpt>
					<trkpt lat="50.333840" lon="4.337430">
						<ele>191</ele>
						<time>2026-07-01T11:35:50Z</time>
					</trkpt>
					<trkpt lat="50.333660" lon="4.337820">
						<ele>190</ele>
						<time>2026-07-01T11:36:31Z</time>
					</trkpt>
					<trkpt lat="50.333580" lon="4.338020">
						<ele>190</ele>
						<time>2026-07-01T11:36:51Z</time>
					</trkpt>
					<trkpt lat="50.333540" lon="4.338140">
						<ele>190</ele>
						<time>2026-07-01T11:37:03Z</time>
					</trkpt>
					<trkpt lat="50.333510" lon="4.338240">
						<ele>189</ele>
						<time>2026-07-01T11:37:12Z</time>
					</trkpt>
					<trkpt lat="50.333500" lon="4.338380">
						<ele>189</ele>
						<time>2026-07-01T11:37:24Z</time>
					</trkpt>
					<trkpt lat="50.333500" lon="4.338600">
						<ele>190</ele>
						<time>2026-07-01T11:37:43Z</time>
					</trkpt>
					<trkpt lat="50.333530" lon="4.339360">
						<ele>190</ele>
						<time>2026-07-01T11:38:48Z</time>
					</trkpt>
					<trkpt lat="50.333420" lon="4.339500">
						<ele>190</ele>
						<time>2026-07-01T11:39:07Z</time>
					</trkpt>
					<trkpt lat="50.333090" lon="4.339900">
						<ele>191</ele>
						<time>2026-07-01T11:40:03Z</time>
					</trkpt>
					<trkpt lat="50.332830" lon="4.340220">
						<ele>192</ele>
						<time>2026-07-01T11:40:47Z</time>
					</trkpt>
					<trkpt lat="50.332650" lon="4.340490">
						<ele>193</ele>
						<time>2026-07-01T11:41:20Z</time>
					</trkpt>
					<trkpt lat="50.332500" lon="4.340770">
						<ele>194</ele>
						<time>2026-07-01T11:41:51Z</time>
					</trkpt>
					<trkpt lat="50.332330" lon="4.341140">
						<ele>195</ele>
						<time>2026-07-01T11:42:30Z</time>
					</trkpt>
					<trkpt lat="50.332120" lon="4.341580">
						<ele>197</ele>
						<time>2026-07-01T11:43:17Z</time>
					</trkpt>
					<trkpt lat="50.332050" lon="4.341780">
						<ele>197</ele>
						<time>2026-07-01T11:43:36Z</time>
					</trkpt>
					<trkpt lat="50.331970" lon="4.342250">
						<ele>198</ele>
						<time>2026-07-01T11:44:18Z</time>
					</trkpt>
					<trkpt lat="50.331730" lon="4.343840">
						<ele>194</ele>
						<time>2026-07-01T11:46:37Z</time>
					</trkpt>
					<trkpt lat="50.331760" lon="4.343850">
						<ele>194</ele>
						<time>2026-07-01T11:46:41Z</time>
					</trkpt>
					<trkpt lat="50.332330" lon="4.344250">
						<ele>195</ele>
						<time>2026-07-01T11:48:04Z</time>
					</trkpt>
					<trkpt lat="50.332420" lon="4.344320">
						<ele>196</ele>
						<time>2026-07-01T11:48:18Z</time>
					</trkpt>
					<trkpt lat="50.332520" lon="4.344430">
						<ele>196</ele>
						<time>2026-07-01T11:48:34Z</time>
					</trkpt>
					<trkpt lat="50.332870" lon="4.344840">
						<ele>196</ele>
						<time>2026-07-01T11:49:32Z</time>
					</trkpt>
					<trkpt lat="50.333410" lon="4.345560">
						<ele>195</ele>
						<time>2026-07-01T11:51:07Z</time>
					</trkpt>
					<trkpt lat="50.334300" lon="4.346530">
						<ele>198</ele>
						<time>2026-07-01T11:53:31Z</time>
					</trkpt>
					<trkpt lat="50.334710" lon="4.347170">
						<ele>197</ele>
						<time>2026-07-01T11:54:49Z</time>
					</trkpt>
					<trkpt lat="50.334710" lon="4.347170">
						<ele>197</ele>
						<time>2026-07-01T11:54:49Z</time>
					</trkpt>
					<trkpt lat="50.334800" lon="4.347210">
						<ele>197</ele>
						<time>2026-07-01T11:55:01Z</time>
					</trkpt>
					<trkpt lat="50.336930" lon="4.348660">
						<ele>202</ele>
						<time>2026-07-01T12:00:11Z</time>
					</trkpt>
					<trkpt lat="50.337140" lon="4.348780">
						<ele>202</ele>
						<time>2026-07-01T12:00:41Z</time>
					</trkpt>
					<trkpt lat="50.337500" lon="4.348930">
						<ele>203</ele>
						<time>2026-07-01T12:01:31Z</time>
					</trkpt>
					<trkpt lat="50.337990" lon="4.349120">
						<ele>204</ele>
						<time>2026-07-01T12:02:38Z</time>
					</trkpt>
					<trkpt lat="50.338470" lon="4.349270">
						<ele>204</ele>
						<time>2026-07-01T12:03:43Z</time>
					</trkpt>
					<trkpt lat="50.340540" lon="4.350010">
						<ele>208</ele>
						<time>2026-07-01T12:08:27Z</time>
					</trkpt>
					<trkpt lat="50.340660" lon="4.350070">
						<ele>208</ele>
						<time>2026-07-01T12:08:44Z</time>
					</trkpt>
					<trkpt lat="50.340960" lon="4.350260">
						<ele>208</ele>
						<time>2026-07-01T12:09:27Z</time>
					</trkpt>
					<trkpt lat="50.341030" lon="4.350320">
						<ele>208</ele>
						<time>2026-07-01T12:09:37Z</time>
					</trkpt>
					<trkpt lat="50.341150" lon="4.350470">
						<ele>209</ele>
						<time>2026-07-01T12:09:58Z</time>
					</trkpt>
					<trkpt lat="50.341170" lon="4.350430">
						<ele>209</ele>
						<time>2026-07-01T12:10:02Z</time>
					</trkpt>
					<trkpt lat="50.341260" lon="4.350290">
						<ele>209</ele>
						<time>2026-07-01T12:10:19Z</time>
					</trkpt>
					<trkpt lat="50.341350" lon="4.350120">
						<ele>208</ele>
						<time>2026-07-01T12:10:38Z</time>
					</trkpt>
					<trkpt lat="50.341520" lon="4.349720">
						<ele>207</ele>
						<time>2026-07-01T12:11:19Z</time>
					</trkpt>
					<trkpt lat="50.341640" lon="4.349390">
						<ele>207</ele>
						<time>2026-07-01T12:11:51Z</time>
					</trkpt>
					<trkpt lat="50.341700" lon="4.349210">
						<ele>207</ele>
						<time>2026-07-01T12:12:09Z</time>
					</trkpt>
					<trkpt lat="50.341930" lon="4.348350">
						<ele>206</ele>
						<time>2026-07-01T12:13:28Z</time>
					</trkpt>
					<trkpt lat="50.341990" lon="4.348170">
						<ele>205</ele>
						<time>2026-07-01T12:13:45Z</time>
					</trkpt>
					<trkpt lat="50.342040" lon="4.348010">
						<ele>205</ele>
						<time>2026-07-01T12:14:00Z</time>
					</trkpt>
					<trkpt lat="50.342490" lon="4.346930">
						<ele>206</ele>
						<time>2026-07-01T12:15:50Z</time>
					</trkpt>
					<trkpt lat="50.342530" lon="4.346800">
						<ele>206</ele>
						<time>2026-07-01T12:16:03Z</time>
					</trkpt>
					<trkpt lat="50.342560" lon="4.346690">
						<ele>206</ele>
						<time>2026-07-01T12:16:13Z</time>
					</trkpt>
					<trkpt lat="50.342590" lon="4.346540">
						<ele>207</ele>
						<time>2026-07-01T12:16:26Z</time>
					</trkpt>
					<trkpt lat="50.342600" lon="4.346420">
						<ele>207</ele>
						<time>2026-07-01T12:16:36Z</time>
					</trkpt>
					<trkpt lat="50.342590" lon="4.346190">
						<ele>207</ele>
						<time>2026-07-01T12:16:56Z</time>
					</trkpt>
					<trkpt lat="50.342560" lon="4.345800">
						<ele>207</ele>
						<time>2026-07-01T12:17:30Z</time>
					</trkpt>
					<trkpt lat="50.342560" lon="4.345660">
						<ele>207</ele>
						<time>2026-07-01T12:17:41Z</time>
					</trkpt>
					<trkpt lat="50.342570" lon="4.345530">
						<ele>207</ele>
						<time>2026-07-01T12:17:53Z</time>
					</trkpt>
					<trkpt lat="50.342590" lon="4.345400">
						<ele>207</ele>
						<time>2026-07-01T12:18:04Z</time>
					</trkpt>
					<trkpt lat="50.342610" lon="4.345320">
						<ele>207</ele>
						<time>2026-07-01T12:18:11Z</time>
					</trkpt>
					<trkpt lat="50.342690" lon="4.345120">
						<ele>207</ele>
						<time>2026-07-01T12:18:31Z</time>
					</trkpt>
					<trkpt lat="50.342760" lon="4.344990">
						<ele>207</ele>
						<time>2026-07-01T12:18:46Z</time>
					</trkpt>
					<trkpt lat="50.342870" lon="4.344830">
						<ele>207</ele>
						<time>2026-07-01T12:19:06Z</time>
					</trkpt>
					<trkpt lat="50.343240" lon="4.344370">
						<ele>208</ele>
						<time>2026-07-01T12:20:09Z</time>
					</trkpt>
					<trkpt lat="50.343310" lon="4.344260">
						<ele>208</ele>
						<time>2026-07-01T12:20:22Z</time>
					</trkpt>
					<trkpt lat="50.343360" lon="4.344170">
						<ele>208</ele>
						<time>2026-07-01T12:20:32Z</time>
					</trkpt>
					<trkpt lat="50.343400" lon="4.344050">
						<ele>208</ele>
						<time>2026-07-01T12:20:44Z</time>
					</trkpt>
					<trkpt lat="50.343450" lon="4.343880">
						<ele>208</ele>
						<time>2026-07-01T12:21:00Z</time>
					</trkpt>
					<trkpt lat="50.343740" lon="4.342820">
						<ele>206</ele>
						<time>2026-07-01T12:22:38Z</time>
					</trkpt>
					<trkpt lat="50.343760" lon="4.342630">
						<ele>206</ele>
						<time>2026-07-01T12:22:54Z</time>
					</trkpt>
					<trkpt lat="50.343750" lon="4.342620">
						<ele>206</ele>
						<time>2026-07-01T12:22:56Z</time>
					</trkpt>
					<trkpt lat="50.343760" lon="4.342630">
						<ele>206</ele>
						<time>2026-07-01T12:22:58Z</time>
					</trkpt>
					<trkpt lat="50.343700" lon="4.342500">
						<ele>206</ele>
						<time>2026-07-01T12:23:11Z</time>
					</trkpt>
					<trkpt lat="50.343170" lon="4.340200">
						<ele>205</ele>
						<time>2026-07-01T12:26:40Z</time>
					</trkpt>
					<trkpt lat="50.342920" lon="4.338880">
						<ele>206</ele>
						<time>2026-07-01T12:28:37Z</time>
					</trkpt>
					<trkpt lat="50.342870" lon="4.338580">
						<ele>206</ele>
						<time>2026-07-01T12:29:03Z</time>
					</trkpt>
					<trkpt lat="50.342850" lon="4.338350">
						<ele>205</ele>
						<time>2026-07-01T12:29:23Z</time>
					</trkpt>
					<trkpt lat="50.342770" lon="4.337160">
						<ele>206</ele>
						<time>2026-07-01T12:31:05Z</time>
					</trkpt>
					<trkpt lat="50.342770" lon="4.336950">
						<ele>205</ele>
						<time>2026-07-01T12:31:23Z</time>
					</trkpt>
					<trkpt lat="50.342780" lon="4.336730">
						<ele>205</ele>
						<time>2026-07-01T12:31:42Z</time>
					</trkpt>
					<trkpt lat="50.342840" lon="4.336070">
						<ele>205</ele>
						<time>2026-07-01T12:32:38Z</time>
					</trkpt>
					<trkpt lat="50.342940" lon="4.334890">
						<ele>206</ele>
						<time>2026-07-01T12:34:20Z</time>
					</trkpt>
					<trkpt lat="50.342940" lon="4.334550">
						<ele>206</ele>
						<time>2026-07-01T12:34:49Z</time>
					</trkpt>
					<trkpt lat="50.342780" lon="4.330590">
						<ele>207</ele>
						<time>2026-07-01T12:40:27Z</time>
					</trkpt>
					<trkpt lat="50.342760" lon="4.330440">
						<ele>207</ele>
						<time>2026-07-01T12:40:40Z</time>
					</trkpt>
					<trkpt lat="50.342730" lon="4.330280">
						<ele>207</ele>
						<time>2026-07-01T12:40:54Z</time>
					</trkpt>
					<trkpt lat="50.342690" lon="4.330140">
						<ele>207</ele>
						<time>2026-07-01T12:41:07Z</time>
					</trkpt>
					<trkpt lat="50.342300" lon="4.328890">
						<ele>206</ele>
						<time>2026-07-01T12:43:05Z</time>
					</trkpt>
					<trkpt lat="50.341870" lon="4.327450">
						<ele>203</ele>
						<time>2026-07-01T12:45:21Z</time>
					</trkpt>
					<trkpt lat="50.341830" lon="4.327320">
						<ele>203</ele>
						<time>2026-07-01T12:45:33Z</time>
					</trkpt>
					<trkpt lat="50.341820" lon="4.327220">
						<ele>203</ele>
						<time>2026-07-01T12:45:42Z</time>
					</trkpt>
					<trkpt lat="50.341810" lon="4.327130">
						<ele>203</ele>
						<time>2026-07-01T12:45:49Z</time>
					</trkpt>
					<trkpt lat="50.341810" lon="4.326960">
						<ele>203</ele>
						<time>2026-07-01T12:46:04Z</time>
					</trkpt>
					<trkpt lat="50.341900" lon="4.325640">
						<ele>202</ele>
						<time>2026-07-01T12:47:57Z</time>
					</trkpt>
					<trkpt lat="50.341900" lon="4.325460">
						<ele>202</ele>
						<time>2026-07-01T12:48:12Z</time>
					</trkpt>
					<trkpt lat="50.341890" lon="4.325350">
						<ele>202</ele>
						<time>2026-07-01T12:48:22Z</time>
					</trkpt>
					<trkpt lat="50.341870" lon="4.325240">
						<ele>202</ele>
						<time>2026-07-01T12:48:32Z</time>
					</trkpt>
					<trkpt lat="50.341520" lon="4.324140">
						<ele>202</ele>
						<time>2026-07-01T12:50:16Z</time>
					</trkpt>
					<trkpt lat="50.341480" lon="4.323970">
						<ele>202</ele>
						<time>2026-07-01T12:50:32Z</time>
					</trkpt>
					<trkpt lat="50.341440" lon="4.323780">
						<ele>202</ele>
						<time>2026-07-01T12:50:49Z</time>
					</trkpt>
					<trkpt lat="50.341180" lon="4.322170">
						<ele>204</ele>
						<time>2026-07-01T12:53:10Z</time>
					</trkpt>
					<trkpt lat="50.341120" lon="4.321910">
						<ele>204</ele>
						<time>2026-07-01T12:53:34Z</time>
					</trkpt>
					<trkpt lat="50.341030" lon="4.321610">
						<ele>204</ele>
						<time>2026-07-01T12:54:02Z</time>
					</trkpt>
					<trkpt lat="50.340880" lon="4.321090">
						<ele>205</ele>
						<time>2026-07-01T12:54:51Z</time>
					</trkpt>
					<trkpt lat="50.340660" lon="4.320400">
						<ele>206</ele>
						<time>2026-07-01T12:55:56Z</time>
					</trkpt>
					<trkpt lat="50.340450" lon="4.319630">
						<ele>206</ele>
						<time>2026-07-01T12:57:08Z</time>
					</trkpt>
					<trkpt lat="50.340360" lon="4.319360">
						<ele>206</ele>
						<time>2026-07-01T12:57:33Z</time>
					</trkpt>
					<trkpt lat="50.340300" lon="4.319250">
						<ele>206</ele>
						<time>2026-07-01T12:57:46Z</time>
					</trkpt>
					<trkpt lat="50.340260" lon="4.319200">
						<ele>206</ele>
						<time>2026-07-01T12:57:53Z</time>
					</trkpt>
					<trkpt lat="50.340240" lon="4.319190">
						<ele>206</ele>
						<time>2026-07-01T12:57:55Z</time>
					</trkpt>
					<trkpt lat="50.340200" lon="4.319170">
						<ele>206</ele>
						<time>2026-07-01T12:58:01Z</time>
					</trkpt>
					<trkpt lat="50.339940" lon="4.319180">
						<ele>205</ele>
						<time>2026-07-01T12:58:36Z</time>
					</trkpt>
					<trkpt lat="50.339680" lon="4.320680">
						<ele>204</ele>
						<time>2026-07-01T13:00:48Z</time>
					</trkpt>
					<trkpt lat="50.339640" lon="4.320900">
						<ele>204</ele>
						<time>2026-07-01T13:01:08Z</time>
					</trkpt>
					<trkpt lat="50.339550" lon="4.321500">
						<ele>203</ele>
						<time>2026-07-01T13:02:00Z</time>
					</trkpt>
					<trkpt lat="50.339410" lon="4.322280">
						<ele>202</ele>
						<time>2026-07-01T13:03:09Z</time>
					</trkpt>
					</trkseg>
				</trk>
			</gpx>