<?xml version="1.0" encoding="UTF-8" ?>
<gpx version="1.1" xmlns:xsi="http://www.w3.org/2001/XMLSchema-instance"
    xmlns="http://www.topografix.com/GPX/1/1"
    xsi:schemaLocation="http://www.topografix.com/GPX/1/1 http://www.topografix.com/GPX/1/1/gpx.xsd"
    creator="Openrunner - https://www.openrunner.com" >	<trk>
	                   <name>RCTT THUIN - Marche Adeps 2026 - 10 km-24698565</name>
						<trkseg>
					<trkpt lat="50.339450" lon="4.322040">
						<ele>202</ele>
						<time>2026-07-29T08:47:35Z</time>
					</trkpt>
					<trkpt lat="50.339450" lon="4.322030">
						<ele>202</ele>
						<time>2026-07-29T08:47:36Z</time>
					</trkpt>
					<trkpt lat="50.339550" lon="4.321500">
						<ele>203</ele>
						<time>2026-07-29T08:48:23Z</time>
					</trkpt>
					<trkpt lat="50.339640" lon="4.320900">
						<ele>204</ele>
						<time>2026-07-29T08:49:15Z</time>
					</trkpt>
					<trkpt lat="50.339680" lon="4.320680">
						<ele>204</ele>
						<time>2026-07-29T08:49:35Z</time>
					</trkpt>
					<trkpt lat="50.339940" lon="4.319180">
						<ele>205</ele>
						<time>2026-07-29T08:51:47Z</time>
					</trkpt>
					<trkpt lat="50.339930" lon="4.319170">
						<ele>205</ele>
						<time>2026-07-29T08:51:49Z</time>
					</trkpt>
					<trkpt lat="50.339840" lon="4.319100">
						<ele>205</ele>
						<time>2026-07-29T08:52:02Z</time>
					</trkpt>
					<trkpt lat="50.339600" lon="4.318800">
						<ele>204</ele>
						<time>2026-07-29T08:52:43Z</time>
					</trkpt>
					<trkpt lat="50.337450" lon="4.315860">
						<ele>202</ele>
						<time>2026-07-29T08:59:04Z</time>
					</trkpt>
					<trkpt lat="50.337230" lon="4.315590">
						<ele>201</ele>
						<time>2026-07-29T08:59:41Z</time>
					</trkpt>
					<trkpt lat="50.337080" lon="4.315380">
						<ele>201</ele>
						<time>2026-07-29T09:00:08Z</time>
					</trkpt>
					<trkpt lat="50.336850" lon="4.314990">
						<ele>200</ele>
						<time>2026-07-29T09:00:53Z</time>
					</trkpt>
					<trkpt lat="50.336740" lon="4.314740">
						<ele>200</ele>
						<time>2026-07-29T09:01:19Z</time>
					</trkpt>
					<trkpt lat="50.336480" lon="4.314230">
						<ele>201</ele>
						<time>2026-07-29T09:02:15Z</time>
					</trkpt>
					<trkpt lat="50.336230" lon="4.313660">
						<ele>201</ele>
						<time>2026-07-29T09:03:14Z</time>
					</trkpt>
					<trkpt lat="50.336160" lon="4.313540">
						<ele>202</ele>
						<time>2026-07-29T09:03:28Z</time>
					</trkpt>
					<trkpt lat="50.336090" lon="4.313420">
						<ele>202</ele>
						<time>2026-07-29T09:03:41Z</time>
					</trkpt>
					<trkpt lat="50.335970" lon="4.313270">
						<ele>202</ele>
						<time>2026-07-29T09:04:02Z</time>
					</trkpt>
					<trkpt lat="50.335790" lon="4.313090">
						<ele>202</ele>
						<time>2026-07-29T09:04:30Z</time>
					</trkpt>
					<trkpt lat="50.335650" lon="4.312970">
						<ele>201</ele>
						<time>2026-07-29T09:04:52Z</time>
					</trkpt>
					<trkpt lat="50.335380" lon="4.312760">
						<ele>201</ele>
						<time>2026-07-29T09:05:32Z</time>
					</trkpt>
					<trkpt lat="50.334950" lon="4.312470">
						<ele>200</ele>
						<time>2026-07-29T09:06:34Z</time>
					</trkpt>
					<trkpt lat="50.334590" lon="4.312250">
						<ele>200</ele>
						<time>2026-07-29T09:07:26Z</time>
					</trkpt>
					<trkpt lat="50.334270" lon="4.312100">
						<ele>200</ele>
						<time>2026-07-29T09:08:11Z</time>
					</trkpt>
					<trkpt lat="50.334130" lon="4.312060">
						<ele>200</ele>
						<time>2026-07-29T09:08:30Z</time>
					</trkpt>
					<trkpt lat="50.334030" lon="4.312040">
						<ele>200</ele>
						<time>2026-07-29T09:08:43Z</time>
					</trkpt>
					<trkpt lat="50.333780" lon="4.312020">
						<ele>200</ele>
						<time>2026-07-29T09:09:16Z</time>
					</trkpt>
					<trkpt lat="50.333610" lon="4.311980">
						<ele>200</ele>
						<time>2026-07-29T09:09:39Z</time>
					</trkpt>
					<trkpt lat="50.333350" lon="4.311810">
						<ele>201</ele>
						<time>2026-07-29T09:10:17Z</time>
					</trkpt>
					<trkpt lat="50.333280" lon="4.311750">
						<ele>201</ele>
						<time>2026-07-29T09:10:28Z</time>
					</trkpt>
					<trkpt lat="50.333160" lon="4.311630">
						<ele>200</ele>
						<time>2026-07-29T09:10:47Z</time>
					</trkpt>
					<trkpt lat="50.332930" lon="4.311530">
						<ele>199</ele>
						<time>2026-07-29T09:11:18Z</time>
					</trkpt>
					<trkpt lat="50.332770" lon="4.311480">
						<ele>199</ele>
						<time>2026-07-29T09:11:40Z</time>
					</trkpt>
					<trkpt lat="50.332290" lon="4.311380">
						<ele>197</ele>
						<time>2026-07-29T09:12:45Z</time>
					</trkpt>
					<trkpt lat="50.331650" lon="4.311290">
						<ele>194</ele>
						<time>2026-07-29T09:14:11Z</time>
					</trkpt>
					<trkpt lat="50.330980" lon="4.311290">
						<ele>193</ele>
						<time>2026-07-29T09:15:40Z</time>
					</trkpt>
					<trkpt lat="50.330660" lon="4.311270">
						<ele>193</ele>
						<time>2026-07-29T09:16:23Z</time>
					</trkpt>
					<trkpt lat="50.330530" lon="4.311230">
						<ele>192</ele>
						<time>2026-07-29T09:16:40Z</time>
					</trkpt>
					<trkpt lat="50.330190" lon="4.311080">
						<ele>191</ele>
						<time>2026-07-29T09:17:28Z</time>
					</trkpt>
					<trkpt lat="50.329900" lon="4.310880">
						<ele>191</ele>
						<time>2026-07-29T09:18:10Z</time>
					</trkpt>
					<trkpt lat="50.329760" lon="4.310820">
						<ele>191</ele>
						<time>2026-07-29T09:18:29Z</time>
					</trkpt>
					<trkpt lat="50.329660" lon="4.310810">
						<ele>191</ele>
						<time>2026-07-29T09:18:43Z</time>
					</trkpt>
					<trkpt lat="50.329510" lon="4.310850">
						<ele>190</ele>
						<time>2026-07-29T09:19:03Z</time>
					</trkpt>
					<trkpt lat="50.329380" lon="4.310900">
						<ele>190</ele>
						<time>2026-07-29T09:19:21Z</time>
					</trkpt>
					<trkpt lat="50.329170" lon="4.311020">
						<ele>190</ele>
						<time>2026-07-29T09:19:51Z</time>
					</trkpt>
					<trkpt lat="50.328880" lon="4.311150">
						<ele>189</ele>
						<time>2026-07-29T09:20:31Z</time>
					</trkpt>
					<trkpt lat="50.328890" lon="4.311090">
						<ele>189</ele>
						<time>2026-07-29T09:20:36Z</time>
					</trkpt>
					<trkpt lat="50.328900" lon="4.311010">
						<ele>189</ele>
						<time>2026-07-29T09:20:43Z</time>
					</trkpt>
					<trkpt lat="50.328890" lon="4.310570">
						<ele>189</ele>
						<time>2026-07-29T09:21:21Z</time>
					</trkpt>
					<trkpt lat="50.328880" lon="4.310300">
						<ele>189</ele>
						<time>2026-07-29T09:21:44Z</time>
					</trkpt>
					<trkpt lat="50.328900" lon="4.309720">
						<ele>189</ele>
						<time>2026-07-29T09:22:33Z</time>
					</trkpt>
					<trkpt lat="50.328950" lon="4.309310">
						<ele>189</ele>
						<time>2026-07-29T09:23:09Z</time>
					</trkpt>
					<trkpt lat="50.328990" lon="4.309140">
						<ele>189</ele>
						<time>2026-07-29T09:23:24Z</time>
					</trkpt>
					<trkpt lat="50.329050" lon="4.308960">
						<ele>190</ele>
						<time>2026-07-29T09:23:41Z</time>
					</trkpt>
					<trkpt lat="50.329390" lon="4.307940">
						<ele>192</ele>
						<time>2026-07-29T09:25:19Z</time>
					</trkpt>
					<trkpt lat="50.329590" lon="4.307450">
						<ele>191</ele>
						<time>2026-07-29T09:26:09Z</time>
					</trkpt>
					<trkpt lat="50.330070" lon="4.306340">
						<ele>188</ele>
						<time>2026-07-29T09:28:03Z</time>
					</trkpt>
					<trkpt lat="50.330460" lon="4.305410">
						<ele>186</ele>
						<time>2026-07-29T09:29:38Z</time>
					</trkpt>
					<trkpt lat="50.330540" lon="4.305240">
						<ele>185</ele>
						<time>2026-07-29T09:29:56Z</time>
					</trkpt>
					<trkpt lat="50.330640" lon="4.305070">
						<ele>185</ele>
						<time>2026-07-29T09:30:16Z</time>
					</trkpt>
					<trkpt lat="50.330740" lon="4.304920">
						<ele>185</ele>
						<time>2026-07-29T09:30:34Z</time>
					</trkpt>
					<trkpt lat="50.331650" lon="4.303780">
						<ele>185</ele>
						<time>2026-07-29T09:33:10Z</time>
					</trkpt>
					<trkpt lat="50.332140" lon="4.303180">
						<ele>185</ele>
						<time>2026-07-29T09:34:33Z</time>
					</trkpt>
					<trkpt lat="50.332170" lon="4.303120">
						<ele>185</ele>
						<time>2026-07-29T09:34:39Z</time>
					</trkpt>
					<trkpt lat="50.332230" lon="4.302960">
						<ele>185</ele>
						<time>2026-07-29T09:34:55Z</time>
					</trkpt>
					<trkpt lat="50.332390" lon="4.302420">
						<ele>186</ele>
						<time>2026-07-29T09:35:46Z</time>
					</trkpt>
					<trkpt lat="50.332410" lon="4.302280">
						<ele>186</ele>
						<time>2026-07-29T09:35:58Z</time>
					</trkpt>
					<trkpt lat="50.332360" lon="4.301370">
						<ele>184</ele>
						<time>2026-07-29T09:37:16Z</time>
					</trkpt>
					<trkpt lat="50.332370" lon="4.301230">
						<ele>184</ele>
						<time>2026-07-29T09:37:28Z</time>
					</trkpt>
					<trkpt lat="50.332380" lon="4.301160">
						<ele>184</ele>
						<time>2026-07-29T09:37:34Z</time>
					</trkpt>
					<trkpt lat="50.332600" lon="4.300530">
						<ele>183</ele>
						<time>2026-07-29T09:38:35Z</time>
					</trkpt>
					<trkpt lat="50.332650" lon="4.300360">
						<ele>182</ele>
						<time>2026-07-29T09:38:51Z</time>
					</trkpt>
					<trkpt lat="50.332670" lon="4.300230">
						<ele>182</ele>
						<time>2026-07-29T09:39:02Z</time>
					</trkpt>
					<trkpt lat="50.332700" lon="4.300180">
						<ele>182</ele>
						<time>2026-07-29T09:39:08Z</time>
					</trkpt>
					<trkpt lat="50.332910" lon="4.299750">
						<ele>181</ele>
						<time>2026-07-29T09:39:54Z</time>
					</trkpt>
					<trkpt lat="50.332990" lon="4.299610">
						<ele>180</ele>
						<time>2026-07-29T09:40:10Z</time>
					</trkpt>
					<trkpt lat="50.333130" lon="4.299360">
						<ele>180</ele>
						<time>2026-07-29T09:40:39Z</time>
					</trkpt>
					<trkpt lat="50.333430" lon="4.298790">
						<ele>178</ele>
						<time>2026-07-29T09:41:42Z</time>
					</trkpt>
					<trkpt lat="50.333580" lon="4.298520">
						<ele>176</ele>
						<time>2026-07-29T09:42:12Z</time>
					</trkpt>
					<trkpt lat="50.333560" lon="4.298520">
						<ele>176</ele>
						<time>2026-07-29T09:42:15Z</time>
					</trkpt>
					<trkpt lat="50.333400" lon="4.298450">
						<ele>176</ele>
						<time>2026-07-29T09:42:37Z</time>
					</trkpt>
					<trkpt lat="50.333680" lon="4.297810">
						<ele>172</ele>
						<time>2026-07-29T09:43:43Z</time>
					</trkpt>
					<trkpt lat="50.333860" lon="4.297170">
						<ele>172</ele>
						<time>2026-07-29T09:44:42Z</time>
					</trkpt>
					<trkpt lat="50.333860" lon="4.296760">
						<ele>171</ele>
						<time>2026-07-29T09:45:17Z</time>
					</trkpt>
					<trkpt lat="50.333870" lon="4.296700">
						<ele>171</ele>
						<time>2026-07-29T09:45:23Z</time>
					</trkpt>
					<trkpt lat="50.333880" lon="4.296380">
						<ele>172</ele>
						<time>2026-07-29T09:45:50Z</time>
					</trkpt>
					<trkpt lat="50.333880" lon="4.296380">
						<ele>172</ele>
						<time>2026-07-29T09:45:50Z</time>
					</trkpt>
					<trkpt lat="50.333880" lon="4.296380">
						<ele>172</ele>
						<time>2026-07-29T09:45:50Z</time>
					</trkpt>
					<trkpt lat="50.334370" lon="4.296250">
						<ele>178</ele>
						<time>2026-07-29T09:46:56Z</time>
					</trkpt>
					<trkpt lat="50.334390" lon="4.295320">
						<ele>178</ele>
						<time>2026-07-29T09:48:16Z</time>
					</trkpt>
					<trkpt lat="50.334400" lon="4.295210">
						<ele>177</ele>
						<time>2026-07-29T09:48:25Z</time>
					</trkpt>
					<trkpt lat="50.334410" lon="4.295020">
						<ele>177</ele>
						<time>2026-07-29T09:48:41Z</time>
					</trkpt>
					<trkpt lat="50.334470" lon="4.294360">
						<ele>175</ele>
						<time>2026-07-29T09:49:38Z</time>
					</trkpt>
					<trkpt lat="50.334500" lon="4.294030">
						<ele>174</ele>
						<time>2026-07-29T09:50:06Z</time>
					</trkpt>
					<trkpt lat="50.334520" lon="4.293850">
						<ele>174</ele>
						<time>2026-07-29T09:50:22Z</time>
					</trkpt>
					<trkpt lat="50.334540" lon="4.293570">
						<ele>173</ele>
						<time>2026-07-29T09:50:46Z</time>
					</trkpt>
					<trkpt lat="50.334560" lon="4.293400">
						<ele>173</ele>
						<time>2026-07-29T09:51:01Z</time>
					</trkpt>
					<trkpt lat="50.334700" lon="4.292550">
						<ele>171</ele>
						<time>2026-07-29T09:52:16Z</time>
					</trkpt>
					<trkpt lat="50.334720" lon="4.292480">
						<ele>171</ele>
						<time>2026-07-29T09:52:22Z</time>
					</trkpt>
					<trkpt lat="50.334870" lon="4.292090">
						<ele>169</ele>
						<time>2026-07-29T09:53:01Z</time>
					</trkpt>
					<trkpt lat="50.334920" lon="4.291850">
						<ele>169</ele>
						<time>2026-07-29T09:53:22Z</time>
					</trkpt>
					<trkpt lat="50.335090" lon="4.291730">
						<ele>167</ele>
						<time>2026-07-29T09:53:47Z</time>
					</trkpt>
					<trkpt lat="50.335230" lon="4.291530">
						<ele>165</ele>
						<time>2026-07-29T09:54:13Z</time>
					</trkpt>
					<trkpt lat="50.335330" lon="4.291370">
						<ele>162</ele>
						<time>2026-07-29T09:54:32Z</time>
					</trkpt>
					<trkpt lat="50.335540" lon="4.290990">
						<ele>157</ele>
						<time>2026-07-29T09:55:14Z</time>
					</trkpt>
					<trkpt lat="50.335730" lon="4.290700">
						<ele>151</ele>
						<time>2026-07-29T09:55:50Z</time>
					</trkpt>
					<trkpt lat="50.335750" lon="4.290680">
						<ele>150</ele>
						<time>2026-07-29T09:55:53Z</time>
					</trkpt>
					<trkpt lat="50.335730" lon="4.290700">
						<ele>151</ele>
						<time>2026-07-29T09:55:56Z</time>
					</trkpt>
					<trkpt lat="50.335710" lon="4.290610">
						<ele>150</ele>
						<time>2026-07-29T09:56:04Z</time>
					</trkpt>
					<trkpt lat="50.335620" lon="4.290530">
						<ele>151</ele>
						<time>2026-07-29T09:56:18Z</time>
					</trkpt>
					<trkpt lat="50.335210" lon="4.290270">
						<ele>155</ele>
						<time>2026-07-29T09:57:17Z</time>
					</trkpt>
					<trkpt lat="50.335090" lon="4.290250">
						<ele>156</ele>
						<time>2026-07-29T09:57:33Z</time>
					</trkpt>
					<trkpt lat="50.334950" lon="4.290270">
						<ele>159</ele>
						<time>2026-07-29T09:57:52Z</time>
					</trkpt>
					<trkpt lat="50.334760" lon="4.290230">
						<ele>161</ele>
						<time>2026-07-29T09:58:18Z</time>
					</trkpt>
					<trkpt lat="50.334390" lon="4.290110">
						<ele>165</ele>
						<time>2026-07-29T09:59:08Z</time>
					</trkpt>
					<trkpt lat="50.334270" lon="4.290100">
						<ele>167</ele>
						<time>2026-07-29T09:59:24Z</time>
					</trkpt>
					<trkpt lat="50.334210" lon="4.290180">
						<ele>169</ele>
						<time>2026-07-29T09:59:34Z</time>
					</trkpt>
					<trkpt lat="50.334200" lon="4.290190">
						<ele>169</ele>
						<time>2026-07-29T09:59:36Z</time>
					</trkpt>
					<trkpt lat="50.334090" lon="4.290090">
						<ele>169</ele>
						<time>2026-07-29T09:59:53Z</time>
					</trkpt>
					<trkpt lat="50.333810" lon="4.289940">
						<ele>170</ele>
						<time>2026-07-29T10:00:33Z</time>
					</trkpt>
					<trkpt lat="50.333600" lon="4.289590">
						<ele>166</ele>
						<time>2026-07-29T10:01:13Z</time>
					</trkpt>
					<trkpt lat="50.333060" lon="4.289170">
						<ele>164</ele>
						<time>2026-07-29T10:02:34Z</time>
					</trkpt>
					<trkpt lat="50.332860" lon="4.289100">
						<ele>162</ele>
						<time>2026-07-29T10:03:01Z</time>
					</trkpt>
					<trkpt lat="50.332340" lon="4.288710">
						<ele>153</ele>
						<time>2026-07-29T10:04:18Z</time>
					</trkpt>
					<trkpt lat="50.332200" lon="4.288830">
						<ele>154</ele>
						<time>2026-07-29T10:04:39Z</time>
					</trkpt>
					<trkpt lat="50.332020" lon="4.288980">
						<ele>154</ele>
						<time>2026-07-29T10:05:07Z</time>
					</trkpt>
					<trkpt lat="50.331900" lon="4.289090">
						<ele>154</ele>
						<time>2026-07-29T10:05:25Z</time>
					</trkpt>
					<trkpt lat="50.331840" lon="4.289240">
						<ele>155</ele>
						<time>2026-07-29T10:05:40Z</time>
					</trkpt>
					<trkpt lat="50.331700" lon="4.289620">
						<ele>156</ele>
						<time>2026-07-29T10:06:18Z</time>
					</trkpt>
					<trkpt lat="50.331610" lon="4.290030">
						<ele>158</ele>
						<time>2026-07-29T10:06:55Z</time>
					</trkpt>
					<trkpt lat="50.331570" lon="4.290230">
						<ele>158</ele>
						<time>2026-07-29T10:07:12Z</time>
					</trkpt>
					<trkpt lat="50.331430" lon="4.290790">
						<ele>160</ele>
						<time>2026-07-29T10:08:04Z</time>
					</trkpt>
					<trkpt lat="50.331280" lon="4.291380">
						<ele>159</ele>
						<time>2026-07-29T10:08:58Z</time>
					</trkpt>
					<trkpt lat="50.331110" lon="4.291850">
						<ele>156</ele>
						<time>2026-07-29T10:09:44Z</time>
					</trkpt>
					<trkpt lat="50.331110" lon="4.291850">
						<ele>156</ele>
						<time>2026-07-29T10:09:44Z</time>
					</trkpt>
					<trkpt lat="50.331110" lon="4.291850">
						<ele>156</ele>
						<time>2026-07-29T10:09:44Z</time>
					</trkpt>
					<trkpt lat="50.330880" lon="4.291830">
						<ele>154</ele>
						<time>2026-07-29T10:10:15Z</time>
					</trkpt>
					<trkpt lat="50.330760" lon="4.291890">
						<ele>152</ele>
						<time>2026-07-29T10:10:31Z</time>
					</trkpt>
					<trkpt lat="50.330660" lon="4.292100">
						<ele>149</ele>
						<time>2026-07-29T10:10:54Z</time>
					</trkpt>
					<trkpt lat="50.330510" lon="4.292460">
						<ele>145</ele>
						<time>2026-07-29T10:11:30Z</time>
					</trkpt>
					<trkpt lat="50.330370" lon="4.292720">
						<ele>142</ele>
						<time>2026-07-29T10:11:59Z</time>
					</trkpt>
					<trkpt lat="50.330180" lon="4.292720">
						<ele>140</ele>
						<time>2026-07-29T10:12:25Z</time>
					</trkpt>
					<trkpt lat="50.330090" lon="4.293080">
						<ele>138</ele>
						<time>2026-07-29T10:12:58Z</time>
					</trkpt>
					<trkpt lat="50.329950" lon="4.293640">
						<ele>141</ele>
						<time>2026-07-29T10:13:49Z</time>
					</trkpt>
					<trkpt lat="50.329710" lon="4.294610">
						<ele>149</ele>
						<time>2026-07-29T10:15:17Z</time>
					</trkpt>
					<trkpt lat="50.329480" lon="4.295520">
						<ele>143</ele>
						<time>2026-07-29T10:16:41Z</time>
					</trkpt>
					<trkpt lat="50.329280" lon="4.296090">
						<ele>139</ele>
						<time>2026-07-29T10:17:36Z</time>
					</trkpt>
					<trkpt lat="50.329040" lon="4.296660">
						<ele>138</ele>
						<time>2026-07-29T10:18:34Z</time>
					</trkpt>
					<trkpt lat="50.328800" lon="4.297140">
						<ele>141</ele>
						<time>2026-07-29T10:19:26Z</time>
					</trkpt>
					<trkpt lat="50.328840" lon="4.297190">
						<ele>140</ele>
						<time>2026-07-29T10:19:33Z</time>
					</trkpt>
					<trkpt lat="50.328930" lon="4.297240">
						<ele>139</ele>
						<time>2026-07-29T10:19:46Z</time>
					</trkpt>
					<trkpt lat="50.329070" lon="4.297240">
						<ele>136</ele>
						<time>2026-07-29T10:20:05Z</time>
					</trkpt>
					<trkpt lat="50.329360" lon="4.297190">
						<ele>135</ele>
						<time>2026-07-29T10:20:44Z</time>
					</trkpt>
					<trkpt lat="50.329730" lon="4.297090">
						<ele>135</ele>
						<time>2026-07-29T10:21:34Z</time>
					</trkpt>
					<trkpt lat="50.329880" lon="4.297110">
						<ele>135</ele>
						<time>2026-07-29T10:21:54Z</time>
					</trkpt>
					<trkpt lat="50.329960" lon="4.297140">
						<ele>135</ele>
						<time>2026-07-29T10:22:05Z</time>
					</trkpt>
					<trkpt lat="50.330160" lon="4.297160">
						<ele>135</ele>
						<time>2026-07-29T10:22:31Z</time>
					</trkpt>
					<trkpt lat="50.330480" lon="4.297120">
						<ele>136</ele>
						<time>2026-07-29T10:23:14Z</time>
					</trkpt>
					<trkpt lat="50.330560" lon="4.297130">
						<ele>137</ele>
						<time>2026-07-29T10:23:25Z</time>
					</trkpt>
					<trkpt lat="50.330640" lon="4.297150">
						<ele>137</ele>
						<time>2026-07-29T10:23:36Z</time>
					</trkpt>
					<trkpt lat="50.330640" lon="4.297170">
						<ele>137</ele>
						<time>2026-07-29T10:23:37Z</time>
					</trkpt>
					<trkpt lat="50.330640" lon="4.297300">
						<ele>138</ele>
						<time>2026-07-29T10:23:49Z</time>
					</trkpt>
					<trkpt lat="50.330600" lon="4.297550">
						<ele>140</ele>
						<time>2026-07-29T10:24:11Z</time>
					</trkpt>
					<trkpt lat="50.330490" lon="4.297880">
						<ele>143</ele>
						<time>2026-07-29T10:24:42Z</time>
					</trkpt>
					<trkpt lat="50.330450" lon="4.297990">
						<ele>143</ele>
						<time>2026-07-29T10:24:53Z</time>
					</trkpt>
					<trkpt lat="50.330400" lon="4.298080">
						<ele>143</ele>
						<time>2026-07-29T10:25:03Z</time>
					</trkpt>
					<trkpt lat="50.330310" lon="4.298190">
						<ele>143</ele>
						<time>2026-07-29T10:25:18Z</time>
					</trkpt>
					<trkpt lat="50.330130" lon="4.298470">
						<ele>144</ele>
						<time>2026-07-29T10:25:52Z</time>
					</trkpt>
					<trkpt lat="50.329960" lon="4.298780">
						<ele>147</ele>
						<time>2026-07-29T10:26:27Z</time>
					</trkpt>
					<trkpt lat="50.329920" lon="4.298840">
						<ele>148</ele>
						<time>2026-07-29T10:26:34Z</time>
					</trkpt>
					<trkpt lat="50.329830" lon="4.298920">
						<ele>149</ele>
						<time>2026-07-29T10:26:48Z</time>
					</trkpt>
					<trkpt lat="50.329770" lon="4.298950">
						<ele>149</ele>
						<time>2026-07-29T10:26:57Z</time>
					</trkpt>
					<trkpt lat="50.329660" lon="4.298980">
						<ele>148</ele>
						<time>2026-07-29T10:27:12Z</time>
					</trkpt>
					<trkpt lat="50.329280" lon="4.299000">
						<ele>145</ele>
						<time>2026-07-29T10:28:02Z</time>
					</trkpt>
					<trkpt lat="50.329180" lon="4.299020">
						<ele>144</ele>
						<time>2026-07-29T10:28:16Z</time>
					</trkpt>
					<trkpt lat="50.328890" lon="4.299090">
						<ele>145</ele>
						<time>2026-07-29T10:28:55Z</time>
					</trkpt>
					<trkpt lat="50.328260" lon="4.299220">
						<ele>146</ele>
						<time>2026-07-29T10:30:20Z</time>
					</trkpt>
					<trkpt lat="50.327920" lon="4.299320">
						<ele>146</ele>
						<time>2026-07-29T10:31:06Z</time>
					</trkpt>
					<trkpt lat="50.327720" lon="4.299390">
						<ele>146</ele>
						<time>2026-07-29T10:31:33Z</time>
					</trkpt>
					<trkpt lat="50.327580" lon="4.299460">
						<ele>146</ele>
						<time>2026-07-29T10:31:53Z</time>
					</trkpt>
					<trkpt lat="50.327440" lon="4.299560">
						<ele>146</ele>
						<time>2026-07-29T10:32:13Z</time>
					</trkpt>
					<trkpt lat="50.327300" lon="4.299690">
						<ele>146</ele>
						<time>2026-07-29T10:32:35Z</time>
					</trkpt>
					<trkpt lat="50.327190" lon="4.299800">
						<ele>146</ele>
						<time>2026-07-29T10:32:53Z</time>
					</trkpt>
					<trkpt lat="50.327030" lon="4.300000">
						<ele>145</ele>
						<time>2026-07-29T10:33:20Z</time>
					</trkpt>
					<trkpt lat="50.326920" lon="4.300190">
						<ele>146</ele>
						<time>2026-07-29T10:33:42Z</time>
					</trkpt>
					<trkpt lat="50.326860" lon="4.300320">
						<ele>147</ele>
						<time>2026-07-29T10:33:55Z</time>
					</trkpt>
					<trkpt lat="50.326600" lon="4.301130">
						<ele>147</ele>
						<time>2026-07-29T10:35:13Z</time>
					</trkpt>
					<trkpt lat="50.326540" lon="4.301420">
						<ele>148</ele>
						<time>2026-07-29T10:35:39Z</time>
					</trkpt>
					<trkpt lat="50.326530" lon="4.301510">
						<ele>148</ele>
						<time>2026-07-29T10:35:46Z</time>
					</trkpt>
					<trkpt lat="50.326520" lon="4.301690">
						<ele>148</ele>
						<time>2026-07-29T10:36:02Z</time>
					</trkpt>
					<trkpt lat="50.326540" lon="4.301830">
						<ele>148</ele>
						<time>2026-07-29T10:36:14Z</time>
					</trkpt>
					<trkpt lat="50.326610" lon="4.302040">
						<ele>149</ele>
						<time>2026-07-29T10:36:34Z</time>
					</trkpt>
					<trkpt lat="50.326900" lon="4.302710">
						<ele>155</ele>
						<time>2026-07-29T10:37:43Z</time>
					</trkpt>
					<trkpt lat="50.327150" lon="4.303370">
						<ele>160</ele>
						<time>2026-07-29T10:38:48Z</time>
					</trkpt>
					<trkpt lat="50.327200" lon="4.303520">
						<ele>162</ele>
						<time>2026-07-29T10:39:03Z</time>
					</trkpt>
					<trkpt lat="50.327230" lon="4.303610">
						<ele>162</ele>
						<time>2026-07-29T10:39:12Z</time>
					</trkpt>
					<trkpt lat="50.327230" lon="4.303680">
						<ele>162</ele>
						<time>2026-07-29T10:39:18Z</time>
					</trkpt>
					<trkpt lat="50.327220" lon="4.303790">
						<ele>162</ele>
						<time>2026-07-29T10:39:27Z</time>
					</trkpt>
					<trkpt lat="50.327190" lon="4.303900">
						<ele>161</ele>
						<time>2026-07-29T10:39:37Z</time>
					</trkpt>
					<trkpt lat="50.327140" lon="4.303970">
						<ele>160</ele>
						<time>2026-07-29T10:39:46Z</time>
					</trkpt>
					<trkpt lat="50.327080" lon="4.304030">
						<ele>159</ele>
						<time>2026-07-29T10:39:56Z</time>
					</trkpt>
					<trkpt lat="50.326920" lon="4.304140">
						<ele>156</ele>
						<time>2026-07-29T10:40:19Z</time>
					</trkpt>
					<trkpt lat="50.326640" lon="4.304270">
						<ele>153</ele>
						<time>2026-07-29T10:40:58Z</time>
					</trkpt>
					<trkpt lat="50.326070" lon="4.304500">
						<ele>150</ele>
						<time>2026-07-29T10:42:16Z</time>
					</trkpt>
					<trkpt lat="50.325870" lon="4.304600">
						<ele>150</ele>
						<time>2026-07-29T10:42:44Z</time>
					</trkpt>
					<trkpt lat="50.325750" lon="4.304710">
						<ele>151</ele>
						<time>2026-07-29T10:43:03Z</time>
					</trkpt>
					<trkpt lat="50.325700" lon="4.304760">
						<ele>152</ele>
						<time>2026-07-29T10:43:11Z</time>
					</trkpt>
					<trkpt lat="50.325670" lon="4.304820">
						<ele>152</ele>
						<time>2026-07-29T10:43:17Z</time>
					</trkpt>
					<trkpt lat="50.325640" lon="4.304880">
						<ele>153</ele>
						<time>2026-07-29T10:43:24Z</time>
					</trkpt>
					<trkpt lat="50.325650" lon="4.305020">
						<ele>155</ele>
						<time>2026-07-29T10:43:36Z</time>
					</trkpt>
					<trkpt lat="50.325700" lon="4.305140">
						<ele>156</ele>
						<time>2026-07-29T10:43:48Z</time>
					</trkpt>
					<trkpt lat="50.325990" lon="4.305570">
						<ele>162</ele>
						<time>2026-07-29T10:44:41Z</time>
					</trkpt>
					<trkpt lat="50.326110" lon="4.305780">
						<ele>165</ele>
						<time>2026-07-29T10:45:05Z</time>
					</trkpt>
					<trkpt lat="50.326210" lon="4.306020">
						<ele>167</ele>
						<time>2026-07-29T10:45:30Z</time>
					</trkpt>
					<trkpt lat="50.326220" lon="4.306010">
						<ele>167</ele>
						<time>2026-07-29T10:45:31Z</time>
					</trkpt>
					<trkpt lat="50.326210" lon="4.306020">
						<ele>167</ele>
						<time>2026-07-29T10:45:33Z</time>
					</trkpt>
					<trkpt lat="50.326080" lon="4.306050">
						<ele>166</ele>
						<time>2026-07-29T10:45:51Z</time>
					</trkpt>
					<trkpt lat="50.326080" lon="4.306310">
						<ele>168</ele>
						<time>2026-07-29T10:46:13Z</time>
					</trkpt>
					<trkpt lat="50.326260" lon="4.306920">
						<ele>173</ele>
						<time>2026-07-29T10:47:10Z</time>
					</trkpt>
					<trkpt lat="50.326500" lon="4.307500">
						<ele>177</ele>
						<time>2026-07-29T10:48:09Z</time>
					</trkpt>
					<trkpt lat="50.326800" lon="4.308300">
						<ele>180</ele>
						<time>2026-07-29T10:49:28Z</time>
					</trkpt>
					<trkpt lat="50.327070" lon="4.308670">
						<ele>183</ele>
						<time>2026-07-29T10:50:16Z</time>
					</trkpt>
					<trkpt lat="50.327140" lon="4.308850">
						<ele>183</ele>
						<time>2026-07-29T10:50:34Z</time>
					</trkpt>
					<trkpt lat="50.327270" lon="4.309050">
						<ele>185</ele>
						<time>2026-07-29T10:50:58Z</time>
					</trkpt>
					<trkpt lat="50.327470" lon="4.309140">
						<ele>187</ele>
						<time>2026-07-29T10:51:26Z</time>
					</trkpt>
					<trkpt lat="50.327660" lon="4.309500">
						<ele>186</ele>
						<time>2026-07-29T10:52:06Z</time>
					</trkpt>
					<trkpt lat="50.327920" lon="4.309820">
						<ele>186</ele>
						<time>2026-07-29T10:52:50Z</time>
					</trkpt>
					<trkpt lat="50.328220" lon="4.310280">
						<ele>187</ele>
						<time>2026-07-29T10:53:46Z</time>
					</trkpt>
					<trkpt lat="50.328890" lon="4.310570">
						<ele>189</ele>
						<time>2026-07-29T10:55:19Z</time>
					</trkpt>
					<trkpt lat="50.328890" lon="4.310570">
						<ele>189</ele>
						<time>2026-07-29T10:55:19Z</time>
					</trkpt>
					<trkpt lat="50.328890" lon="4.310570">
						<ele>189</ele>
						<time>2026-07-29T10:55:19Z</time>
					</trkpt>
					<trkpt lat="50.328900" lon="4.311010">
						<ele>189</ele>
						<time>2026-07-29T10:55:56Z</time>
					</trkpt>
					<trkpt lat="50.328890" lon="4.311090">
						<ele>189</ele>
						<time>2026-07-29T10:56:03Z</time>
					</trkpt>
					<trkpt lat="50.328880" lon="4.311150">
						<ele>189</ele>
						<time>2026-07-29T10:56:08Z</time>
					</trkpt>
					<trkpt lat="50.328810" lon="4.311270">
						<ele>188</ele>
						<time>2026-07-29T10:56:22Z</time>
					</trkpt>
					<trkpt lat="50.328720" lon="4.311340">
						<ele>188</ele>
						<time>2026-07-29T10:56:36Z</time>
					</trkpt>
					<trkpt lat="50.328570" lon="4.311420">
						<ele>187</ele>
						<time>2026-07-29T10:56:57Z</time>
					</trkpt>
					<trkpt lat="50.328260" lon="4.311530">
						<ele>186</ele>
						<time>2026-07-29T10:57:39Z</time>
					</trkpt>
					<trkpt lat="50.327200" lon="4.311760">
						<ele>185</ele>
						<time>2026-07-29T11:00:02Z</time>
					</trkpt>
					<trkpt lat="50.327180" lon="4.311770">
						<ele>185</ele>
						<time>2026-07-29T11:00:05Z</time>
					</trkpt>
					<trkpt lat="50.327260" lon="4.312500">
						<ele>188</ele>
						<time>2026-07-29T11:01:08Z</time>
					</trkpt>
					<trkpt lat="50.327120" lon="4.313020">
						<ele>190</ele>
						<time>2026-07-29T11:01:56Z</time>
					</trkpt>
					<trkpt lat="50.327030" lon="4.313140">
						<ele>190</ele>
						<time>2026-07-29T11:02:12Z</time>
					</trkpt>
					<trkpt lat="50.326910" lon="4.313360">
						<ele>191</ele>
						<time>2026-07-29T11:02:36Z</time>
					</trkpt>
					<trkpt lat="50.326850" lon="4.313930">
						<ele>189</ele>
						<time>2026-07-29T11:03:25Z</time>
					</trkpt>
					<trkpt lat="50.326760" lon="4.314150">
						<ele>189</ele>
						<time>2026-07-29T11:03:48Z</time>
					</trkpt>
					<trkpt lat="50.326670" lon="4.314310">
						<ele>189</ele>
						<time>2026-07-29T11:04:06Z</time>
					</trkpt>
					<trkpt lat="50.326530" lon="4.314490">
						<ele>187</ele>
						<time>2026-07-29T11:04:30Z</time>
					</trkpt>
					<trkpt lat="50.326450" lon="4.314670">
						<ele>186</ele>
						<time>2026-07-29T11:04:49Z</time>
					</trkpt>
					<trkpt lat="50.326380" lon="4.314910">
						<ele>185</ele>
						<time>2026-07-29T11:05:11Z</time>
					</trkpt>
					<trkpt lat="50.326340" lon="4.315120">
						<ele>184</ele>
						<time>2026-07-29T11:05:30Z</time>
					</trkpt>
					<trkpt lat="50.326330" lon="4.315350">
						<ele>184</ele>
						<time>2026-07-29T11:05:50Z</time>
					</trkpt>
					<trkpt lat="50.326330" lon="4.315780">
						<ele>184</ele>
						<time>2026-07-29T11:06:26Z</time>
					</trkpt>
					<trkpt lat="50.326280" lon="4.316220">
						<ele>182</ele>
						<time>2026-07-29T11:07:04Z</time>
					</trkpt>
					<trkpt lat="50.326260" lon="4.316410">
						<ele>181</ele>
						<time>2026-07-29T11:07:21Z</time>
					</trkpt>
					<trkpt lat="50.326230" lon="4.316790">
						<ele>180</ele>
						<time>2026-07-29T11:07:53Z</time>
					</trkpt>
					<trkpt lat="50.326290" lon="4.317340">
						<ele>179</ele>
						<time>2026-07-29T11:08:41Z</time>
					</trkpt>
					<trkpt lat="50.326460" lon="4.317820">
						<ele>180</ele>
						<time>2026-07-29T11:09:28Z</time>
					</trkpt>
					<trkpt lat="50.326510" lon="4.318130">
						<ele>180</ele>
						<time>2026-07-29T11:09:55Z</time>
					</trkpt>
					<trkpt lat="50.326510" lon="4.318440">
						<ele>179</ele>
						<time>2026-07-29T11:10:21Z</time>
					</trkpt>
					<trkpt lat="50.326330" lon="4.319100">
						<ele>175</ele>
						<time>2026-07-29T11:11:22Z</time>
					</trkpt>
					<trkpt lat="50.326180" lon="4.319560">
						<ele>172</ele>
						<time>2026-07-29T11:12:06Z</time>
					</trkpt>
					<trkpt lat="50.326150" lon="4.319690">
						<ele>172</ele>
						<time>2026-07-29T11:12:18Z</time>
					</trkpt>
					<trkpt lat="50.326180" lon="4.319810">
						<ele>172</ele>
						<time>2026-07-29T11:12:29Z</time>
					</trkpt>
					<trkpt lat="50.326260" lon="4.319890">
						<ele>172</ele>
						<time>2026-07-29T11:12:42Z</time>
					</trkpt>
					<trkpt lat="50.326500" lon="4.320230">
						<ele>172</ele>
						<time>2026-07-29T11:13:25Z</time>
					</trkpt>
					<trkpt lat="50.326970" lon="4.320970">
						<ele>174</ele>
						<time>2026-07-29T11:14:54Z</time>
					</trkpt>
					<trkpt lat="50.327350" lon="4.321600">
						<ele>178</ele>
						<time>2026-07-29T11:16:08Z</time>
					</trkpt>
					<trkpt lat="50.327780" lon="4.322280">
						<ele>183</ele>
						<time>2026-07-29T11:17:29Z</time>
					</trkpt>
					<trkpt lat="50.327630" lon="4.322410">
						<ele>181</ele>
						<time>2026-07-29T11:17:52Z</time>
					</trkpt>
					<trkpt lat="50.327620" lon="4.322510">
						<ele>180</ele>
						<time>2026-07-29T11:18:01Z</time>
					</trkpt>
					<trkpt lat="50.327610" lon="4.322640">
						<ele>180</ele>
						<time>2026-07-29T11:18:12Z</time>
					</trkpt>
					<trkpt lat="50.327510" lon="4.322780">
						<ele>179</ele>
						<time>2026-07-29T11:18:30Z</time>
					</trkpt>
					<trkpt lat="50.327320" lon="4.322970">
						<ele>178</ele>
						<time>2026-07-29T11:19:00Z</time>
					</trkpt>
					<trkpt lat="50.327180" lon="4.323150">
						<ele>176</ele>
						<time>2026-07-29T11:19:24Z</time>
					</trkpt>
					<trkpt lat="50.326990" lon="4.323290">
						<ele>174</ele>
						<time>2026-07-29T11:19:52Z</time>
					</trkpt>
					<trkpt lat="50.326860" lon="4.323520">
						<ele>173</ele>
						<time>2026-07-29T11:20:18Z</time>
					</trkpt>
					<trkpt lat="50.326780" lon="4.323780">
						<ele>173</ele>
						<time>2026-07-29T11:20:43Z</time>
					</trkpt>
					<trkpt lat="50.326540" lon="4.324110">
						<ele>171</ele>
						<time>2026-07-29T11:21:26Z</time>
					</trkpt>
					<trkpt lat="50.326490" lon="4.324300">
						<ele>170</ele>
						<time>2026-07-29T11:21:43Z</time>
					</trkpt>
					<trkpt lat="50.326370" lon="4.324520">
						<ele>168</ele>
						<time>2026-07-29T11:22:08Z</time>
					</trkpt>
					<trkpt lat="50.326220" lon="4.325190">
						<ele>165</ele>
						<time>2026-07-29T11:23:08Z</time>
					</trkpt>
					<trkpt lat="50.326300" lon="4.325550">
						<ele>166</ele>
						<time>2026-07-29T11:23:41Z</time>
					</trkpt>
					<trkpt lat="50.326430" lon="4.325900">
						<ele>167</ele>
						<time>2026-07-29T11:24:15Z</time>
					</trkpt>
					<trkpt lat="50.326620" lon="4.326090">
						<ele>168</ele>
						<time>2026-07-29T11:24:45Z</time>
					</trkpt>
					<trkpt lat="50.326640" lon="4.326180">
						<ele>168</ele>
						<time>2026-07-29T11:24:53Z</time>
					</trkpt>
					<trkpt lat="50.326530" lon="4.326660">
						<ele>167</ele>
						<time>2026-07-29T11:25:37Z</time>
					</trkpt>
					<trkpt lat="50.326510" lon="4.326980">
						<ele>168</ele>
						<time>2026-07-29T11:26:04Z</time>
					</trkpt>
					<trkpt lat="50.326490" lon="4.327120">
						<ele>168</ele>
						<time>2026-07-29T11:26:16Z</time>
					</trkpt>
					<trkpt lat="50.326440" lon="4.327190">
						<ele>168</ele>
						<time>2026-07-29T11:26:25Z</time>
					</trkpt>
					<trkpt lat="50.326420" lon="4.327220">
						<ele>168</ele>
						<time>2026-07-29T11:26:29Z</time>
					</trkpt>
					<trkpt lat="50.326330" lon="4.327340">
						<ele>169</ele>
						<time>2026-07-29T11:26:45Z</time>
					</trkpt>
					<trkpt lat="50.326300" lon="4.327440">
						<ele>170</ele>
						<time>2026-07-29T11:26:54Z</time>
					</trkpt>
					<trkpt lat="50.326260" lon="4.327650">
						<ele>170</ele>
						<time>2026-07-29T11:27:13Z</time>
					</trkpt>
					<trkpt lat="50.326370" lon="4.327820">
						<ele>170</ele>
						<time>2026-07-29T11:27:34Z</time>
					</trkpt>
					<trkpt lat="50.326700" lon="4.328210">
						<ele>169</ele>
						<time>2026-07-29T11:28:29Z</time>
					</trkpt>
					<trkpt lat="50.327080" lon="4.328550">
						<ele>169</ele>
						<time>2026-07-29T11:29:27Z</time>
					</trkpt>
					<trkpt lat="50.327830" lon="4.329660">
						<ele>174</ele>
						<time>2026-07-29T11:31:45Z</time>
					</trkpt>
					<trkpt lat="50.328510" lon="4.331070">
						<ele>176</ele>
						<time>2026-07-29T11:34:15Z</time>
					</trkpt>
					<trkpt lat="50.328510" lon="4.331190">
						<ele>177</ele>
						<time>2026-07-29T11:34:26Z</time>
					</trkpt>
					<trkpt lat="50.328510" lon="4.331190">
						<ele>177</ele>
						<time>2026-07-29T11:34:26Z</time>
					</trkpt>
					<trkpt lat="50.328520" lon="4.331280">
						<ele>177</ele>
						<time>2026-07-29T11:34:33Z</time>
					</trkpt>
					<trkpt lat="50.328540" lon="4.331440">
						<ele>178</ele>
						<time>2026-07-29T11:34:47Z</time>
					</trkpt>
					<trkpt lat="50.328680" lon="4.331770">
						<ele>179</ele>
						<time>2026-07-29T11:35:21Z</time>
					</trkpt>
					<trkpt lat="50.328630" lon="4.332000">
						<ele>181</ele>
						<time>2026-07-29T11:35:42Z</time>
					</trkpt>
					<trkpt lat="50.328540" lon="4.332430">
						<ele>184</ele>
						<time>2026-07-29T11:36:20Z</time>
					</trkpt>
					<trkpt lat="50.328610" lon="4.332830">
						<ele>184</ele>
						<time>2026-07-29T11:36:56Z</time>
					</trkpt>
					<trkpt lat="50.328570" lon="4.333380">
						<ele>185</ele>
						<time>2026-07-29T11:37:43Z</time>
					</trkpt>
					<trkpt lat="50.328990" lon="4.333740">
						<ele>183</ele>
						<time>2026-07-29T11:38:47Z</time>
					</trkpt>
					<trkpt lat="50.329170" lon="4.333950">
						<ele>183</ele>
						<time>2026-07-29T11:39:17Z</time>
					</trkpt>
					<trkpt lat="50.329280" lon="4.334060">
						<ele>182</ele>
						<time>2026-07-29T11:39:34Z</time>
					</trkpt>
					<trkpt lat="50.329570" lon="4.334290">
						<ele>182</ele>
						<time>2026-07-29T11:40:17Z</time>
					</trkpt>
					<trkpt lat="50.329670" lon="4.334400">
						<ele>181</ele>
						<time>2026-07-29T11:40:34Z</time>
					</trkpt>
					<trkpt lat="50.329730" lon="4.334500">
						<ele>181</ele>
						<time>2026-07-29T11:40:45Z</time>
					</trkpt>
					<trkpt lat="50.329830" lon="4.334720">
						<ele>182</ele>
						<time>2026-07-29T11:41:08Z</time>
					</trkpt>
					<trkpt lat="50.329860" lon="4.334810">
						<ele>182</ele>
						<time>2026-07-29T11:41:17Z</time>
					</trkpt>
					<trkpt lat="50.329850" lon="4.334880">
						<ele>182</ele>
						<time>2026-07-29T11:41:23Z</time>
					</trkpt>
					<trkpt lat="50.329440" lon="4.336160">
						<ele>187</ele>
						<time>2026-07-29T11:43:25Z</time>
					</trkpt>
					<trkpt lat="50.329440" lon="4.336210">
						<ele>187</ele>
						<time>2026-07-29T11:43:29Z</time>
					</trkpt>
					<trkpt lat="50.329610" lon="4.336340">
						<ele>187</ele>
						<time>2026-07-29T11:43:55Z</time>
					</trkpt>
					<trkpt lat="50.329990" lon="4.336530">
						<ele>187</ele>
						<time>2026-07-29T11:44:48Z</time>
					</trkpt>
					<trkpt lat="50.330110" lon="4.336610">
						<ele>187</ele>
						<time>2026-07-29T11:45:05Z</time>
					</trkpt>
					<trkpt lat="50.330650" lon="4.337080">
						<ele>188</ele>
						<time>2026-07-29T11:46:28Z</time>
					</trkpt>
					<trkpt lat="50.331080" lon="4.337490">
						<ele>188</ele>
						<time>2026-07-29T11:47:35Z</time>
					</trkpt>
					<trkpt lat="50.331310" lon="4.337770">
						<ele>188</ele>
						<time>2026-07-29T11:48:14Z</time>
					</trkpt>
					<trkpt lat="50.331510" lon="4.338060">
						<ele>188</ele>
						<time>2026-07-29T11:48:50Z</time>
					</trkpt>
					<trkpt lat="50.331730" lon="4.338340">
						<ele>189</ele>
						<time>2026-07-29T11:49:28Z</time>
					</trkpt>
					<trkpt lat="50.332100" lon="4.338720">
						<ele>190</ele>
						<time>2026-07-29T11:50:27Z</time>
					</trkpt>
					<trkpt lat="50.332650" lon="4.339220">
						<ele>190</ele>
						<time>2026-07-29T11:51:52Z</time>
					</trkpt>
					<trkpt lat="50.332740" lon="4.339300">
						<ele>190</ele>
						<time>2026-07-29T11:52:06Z</time>
					</trkpt>
					<trkpt lat="50.332820" lon="4.339420">
						<ele>190</ele>
						<time>2026-07-29T11:52:20Z</time>
					</trkpt>
					<trkpt lat="50.333040" lon="4.339760">
						<ele>191</ele>
						<time>2026-07-29T11:53:02Z</time>
					</trkpt>
					<trkpt lat="50.333090" lon="4.339900">
						<ele>191</ele>
						<time>2026-07-29T11:53:15Z</time>
					</trkpt>
					<trkpt lat="50.333070" lon="4.339930">
						<ele>191</ele>
						<time>2026-07-29T11:53:19Z</time>
					</trkpt>
					<trkpt lat="50.333090" lon="4.339900">
						<ele>191</ele>
						<time>2026-07-29T11:53:23Z</time>
					</trkpt>
					<trkpt lat="50.333420" lon="4.339500">
						<ele>190</ele>
						<time>2026-07-29T11:54:18Z</time>
					</trkpt>
					<trkpt lat="50.333530" lon="4.339360">
						<ele>190</ele>
						<time>2026-07-29T11:54:37Z</time>
					</trkpt>
					<trkpt lat="50.333500" lon="4.338600">
						<ele>190</ele>
						<time>2026-07-29T11:55:42Z</time>
					</trkpt>
					<trkpt lat="50.333500" lon="4.338380">
						<ele>189</ele>
						<time>2026-07-29T11:56:01Z</time>
					</trkpt>
					<trkpt lat="50.333510" lon="4.338240">
						<ele>189</ele>
						<time>2026-07-29T11:56:13Z</time>
					</trkpt>
					<trkpt lat="50.333540" lon="4.338140">
						<ele>190</ele>
						<time>2026-07-29T11:56:22Z</time>
					</trkpt>
					<trkpt lat="50.333580" lon="4.338020">
						<ele>190</ele>
						<time>2026-07-29T11:56:34Z</time>
					</trkpt>
					<trkpt lat="50.333660" lon="4.337820">
						<ele>190</ele>
						<time>2026-07-29T11:56:54Z</time>
					</trkpt>
					<trkpt lat="50.333840" lon="4.337430">
						<ele>191</ele>
						<time>2026-07-29T11:57:35Z</time>
					</trkpt>
					<trkpt lat="50.333900" lon="4.337320">
						<ele>191</ele>
						<time>2026-07-29T11:57:47Z</time>
					</trkpt>
					<trkpt lat="50.334030" lon="4.337150">
						<ele>192</ele>
						<time>2026-07-29T11:58:10Z</time>
					</trkpt>
					<trkpt lat="50.335210" lon="4.336110">
						<ele>195</ele>
						<time>2026-07-29T12:01:11Z</time>
					</trkpt>
					<trkpt lat="50.335400" lon="4.335940">
						<ele>195</ele>
						<time>2026-07-29T12:01:40Z</time>
					</trkpt>
					<trkpt lat="50.335470" lon="4.335830">
						<ele>196</ele>
						<time>2026-07-29T12:01:53Z</time>
					</trkpt>
					<trkpt lat="50.335560" lon="4.335660">
						<ele>196</ele>
						<time>2026-07-29T12:02:12Z</time>
					</trkpt>
					<trkpt lat="50.335620" lon="4.335450">
						<ele>195</ele>
						<time>2026-07-29T12:02:31Z</time>
					</trkpt>
					<trkpt lat="50.335790" lon="4.334560">
						<ele>194</ele>
						<time>2026-07-29T12:03:50Z</time>
					</trkpt>
					<trkpt lat="50.335910" lon="4.333840">
						<ele>193</ele>
						<time>2026-07-29T12:04:54Z</time>
					</trkpt>
					<trkpt lat="50.335950" lon="4.333670">
						<ele>194</ele>
						<time>2026-07-29T12:05:09Z</time>
					</trkpt>
					<trkpt lat="50.336010" lon="4.333510">
						<ele>194</ele>
						<time>2026-07-29T12:05:25Z</time>
					</trkpt>
					<trkpt lat="50.336180" lon="4.333180">
						<ele>195</ele>
						<time>2026-07-29T12:06:01Z</time>
					</trkpt>
					<trkpt lat="50.336670" lon="4.332370">
						<ele>197</ele>
						<time>2026-07-29T12:07:36Z</time>
					</trkpt>
					<trkpt lat="50.337100" lon="4.331700">
						<ele>198</ele>
						<time>2026-07-29T12:08:57Z</time>
					</trkpt>
					<trkpt lat="50.337590" lon="4.331150">
						<ele>199</ele>
						<time>2026-07-29T12:10:18Z</time>
					</trkpt>
					<trkpt lat="50.337710" lon="4.331030">
						<ele>200</ele>
						<time>2026-07-29T12:10:37Z</time>
					</trkpt>
					<trkpt lat="50.337810" lon="4.331000">
						<ele>200</ele>
						<time>2026-07-29T12:10:50Z</time>
					</trkpt>
					<trkpt lat="50.338570" lon="4.326830">
						<ele>198</ele>
						<time>2026-07-29T12:17:00Z</time>
					</trkpt>
					<trkpt lat="50.338690" lon="4.326900">
						<ele>198</ele>
						<time>2026-07-29T12:17:17Z</time>
					</trkpt>
					<trkpt lat="50.338760" lon="4.326700">
						<ele>198</ele>
						<time>2026-07-29T12:17:36Z</time>
					</trkpt>
					<trkpt lat="50.338880" lon="4.326300">
						<ele>197</ele>
						<time>2026-07-29T12:18:14Z</time>
					</trkpt>
					<trkpt lat="50.338870" lon="4.326250">
						<ele>197</ele>
						<time>2026-07-29T12:18:18Z</time>
					</trkpt>
					<trkpt lat="50.338980" lon="4.325760">
						<ele>197</ele>
						<time>2026-07-29T12:19:02Z</time>
					</trkpt>
					<trkpt lat="50.339010" lon="4.325540">
						<ele>198</ele>
						<time>2026-07-29T12:19:22Z</time>
					</trkpt>
					<trkpt lat="50.339030" lon="4.325290">
						<ele>198</ele>
						<time>2026-07-29T12:19:43Z</time>
					</trkpt>
					<trkpt lat="50.339020" lon="4.325240">
						<ele>198</ele>
						<time>2026-07-29T12:19:48Z</time>
					</trkpt>
					<trkpt lat="50.339020" lon="4.325170">
						<ele>198</ele>
						<time>2026-07-29T12:19:54Z</time>
					</trkpt>
					<trkpt lat="50.339040" lon="4.324960">
						<ele>199</ele>
						<time>2026-07-29T12:20:12Z</time>
					</trkpt>
					<trkpt lat="50.339110" lon="4.324560">
						<ele>200</ele>
						<time>2026-07-29T12:20:47Z</time>
					</trkpt>
					<trkpt lat="50.339230" lon="4.324060">
						<ele>201</ele>
						<time>2026-07-29T12:21:32Z</time>
					</trkpt>
					<trkpt lat="50.339350" lon="4.323850">
						<ele>201</ele>
						<time>2026-07-29T12:21:56Z</time>
					</trkpt>
					<trkpt lat="50.339370" lon="4.323710">
						<ele>202</ele>
						<time>2026-07-29T12:22:09Z</time>
					</trkpt>
					<trkpt lat="50.339390" lon="4.323550">
						<ele>202</ele>
						<time>2026-07-29T12:22:23Z</time>
					</trkpt>
					<trkpt lat="50.339360" lon="4.323510">
						<ele>202</ele>
						<time>2026-07-29T12:22:28Z</time>
					</trkpt>
					<trkpt lat="50.339320" lon="4.323480">
						<ele>202</ele>
						<time>2026-07-29T12:22:34Z</time>
					</trkpt>
					<trkpt lat="50.339200" lon="4.323420">
						<ele>203</ele>
						<time>2026-07-29T12:22:51Z</time>
					</trkpt>
					<trkpt lat="50.339400" lon="4.322310">
						<ele>202</ele>
						<time>2026-07-29T12:24:29Z</time>
					</trkpt>
					<trkpt lat="50.339450" lon="4.322040">
						<ele>202</ele>
						<time>2026-07-29T12:24:53Z</time>
					</trkpt>
					<trkpt lat="50.339450" lon="4.322030">
						<ele>202</ele>
						<time>2026-07-29T12:24:54Z</time>
					</trkpt>
					<trkpt lat="50.339450" lon="4.322040">
						<ele>202</ele>
						<time>2026-07-29T12:24:54Z</time>
					</trkpt>
					</trkseg>
				</trk>
			</gpx>