<?xml version="1.0" encoding="UTF-8" ?>
<gpx version="1.1" xmlns:xsi="http://www.w3.org/2001/XMLSchema-instance"
    xmlns="http://www.topografix.com/GPX/1/1"
    xsi:schemaLocation="http://www.topografix.com/GPX/1/1 http://www.topografix.com/GPX/1/1/gpx.xsd"
    creator="Openrunner - https://www.openrunner.com" >	<trk>
	                   <name>New route-24167366</name>
						<trkseg>
					<trkpt lat="50.339410" lon="4.322290">
						<ele>202</ele>
						<time>2026-07-01T11:09:02Z</time>
					</trkpt>
					<trkpt lat="50.339550" lon="4.321500">
						<ele>203</ele>
						<time>2026-07-01T11:10:12Z</time>
					</trkpt>
					<trkpt lat="50.339640" lon="4.320900">
						<ele>204</ele>
						<time>2026-07-01T11:11:04Z</time>
					</trkpt>
					<trkpt lat="50.339680" lon="4.320680">
						<ele>204</ele>
						<time>2026-07-01T11:11:24Z</time>
					</trkpt>
					<trkpt lat="50.339940" lon="4.319180">
						<ele>205</ele>
						<time>2026-07-01T11:13:36Z</time>
					</trkpt>
					<trkpt lat="50.339920" lon="4.319160">
						<ele>205</ele>
						<time>2026-07-01T11:13:39Z</time>
					</trkpt>
					<trkpt lat="50.339840" lon="4.319100">
						<ele>205</ele>
						<time>2026-07-01T11:13:51Z</time>
					</trkpt>
					<trkpt lat="50.339600" lon="4.318800">
						<ele>204</ele>
						<time>2026-07-01T11:14:32Z</time>
					</trkpt>
					<trkpt lat="50.337450" lon="4.315860">
						<ele>202</ele>
						<time>2026-07-01T11:20:53Z</time>
					</trkpt>
					<trkpt lat="50.337230" lon="4.315590">
						<ele>201</ele>
						<time>2026-07-01T11:21:30Z</time>
					</trkpt>
					<trkpt lat="50.337080" lon="4.315380">
						<ele>201</ele>
						<time>2026-07-01T11:21:57Z</time>
					</trkpt>
					<trkpt lat="50.336850" lon="4.314990">
						<ele>200</ele>
						<time>2026-07-01T11:22:42Z</time>
					</trkpt>
					<trkpt lat="50.336740" lon="4.314740">
						<ele>200</ele>
						<time>2026-07-01T11:23:08Z</time>
					</trkpt>
					<trkpt lat="50.336480" lon="4.314230">
						<ele>201</ele>
						<time>2026-07-01T11:24:04Z</time>
					</trkpt>
					<trkpt lat="50.336230" lon="4.313660">
						<ele>201</ele>
						<time>2026-07-01T11:25:03Z</time>
					</trkpt>
					<trkpt lat="50.336160" lon="4.313540">
						<ele>202</ele>
						<time>2026-07-01T11:25:17Z</time>
					</trkpt>
					<trkpt lat="50.336090" lon="4.313420">
						<ele>202</ele>
						<time>2026-07-01T11:25:30Z</time>
					</trkpt>
					<trkpt lat="50.335970" lon="4.313270">
						<ele>202</ele>
						<time>2026-07-01T11:25:51Z</time>
					</trkpt>
					<trkpt lat="50.335790" lon="4.313090">
						<ele>202</ele>
						<time>2026-07-01T11:26:19Z</time>
					</trkpt>
					<trkpt lat="50.335650" lon="4.312970">
						<ele>201</ele>
						<time>2026-07-01T11:26:41Z</time>
					</trkpt>
					<trkpt lat="50.335380" lon="4.312760">
						<ele>201</ele>
						<time>2026-07-01T11:27:21Z</time>
					</trkpt>
					<trkpt lat="50.334950" lon="4.312470">
						<ele>200</ele>
						<time>2026-07-01T11:28:23Z</time>
					</trkpt>
					<trkpt lat="50.334590" lon="4.312250">
						<ele>200</ele>
						<time>2026-07-01T11:29:15Z</time>
					</trkpt>
					<trkpt lat="50.334270" lon="4.312100">
						<ele>200</ele>
						<time>2026-07-01T11:30:00Z</time>
					</trkpt>
					<trkpt lat="50.334130" lon="4.312060">
						<ele>200</ele>
						<time>2026-07-01T11:30:19Z</time>
					</trkpt>
					<trkpt lat="50.334030" lon="4.312040">
						<ele>200</ele>
						<time>2026-07-01T11:30:32Z</time>
					</trkpt>
					<trkpt lat="50.333780" lon="4.312020">
						<ele>200</ele>
						<time>2026-07-01T11:31:05Z</time>
					</trkpt>
					<trkpt lat="50.333610" lon="4.311980">
						<ele>200</ele>
						<time>2026-07-01T11:31:28Z</time>
					</trkpt>
					<trkpt lat="50.333620" lon="4.311950">
						<ele>200</ele>
						<time>2026-07-01T11:31:31Z</time>
					</trkpt>
					<trkpt lat="50.333610" lon="4.311980">
						<ele>200</ele>
						<time>2026-07-01T11:31:34Z</time>
					</trkpt>
					<trkpt lat="50.333350" lon="4.311810">
						<ele>201</ele>
						<time>2026-07-01T11:32:12Z</time>
					</trkpt>
					<trkpt lat="50.333280" lon="4.311750">
						<ele>201</ele>
						<time>2026-07-01T11:32:22Z</time>
					</trkpt>
					<trkpt lat="50.333160" lon="4.311630">
						<ele>200</ele>
						<time>2026-07-01T11:32:41Z</time>
					</trkpt>
					<trkpt lat="50.332930" lon="4.311530">
						<ele>199</ele>
						<time>2026-07-01T11:33:13Z</time>
					</trkpt>
					<trkpt lat="50.332770" lon="4.311480">
						<ele>199</ele>
						<time>2026-07-01T11:33:35Z</time>
					</trkpt>
					<trkpt lat="50.332290" lon="4.311380">
						<ele>197</ele>
						<time>2026-07-01T11:34:40Z</time>
					</trkpt>
					<trkpt lat="50.331650" lon="4.311290">
						<ele>194</ele>
						<time>2026-07-01T11:36:05Z</time>
					</trkpt>
					<trkpt lat="50.330980" lon="4.311290">
						<ele>193</ele>
						<time>2026-07-01T11:37:35Z</time>
					</trkpt>
					<trkpt lat="50.330660" lon="4.311270">
						<ele>193</ele>
						<time>2026-07-01T11:38:17Z</time>
					</trkpt>
					<trkpt lat="50.330530" lon="4.311230">
						<ele>192</ele>
						<time>2026-07-01T11:38:35Z</time>
					</trkpt>
					<trkpt lat="50.330190" lon="4.311080">
						<ele>191</ele>
						<time>2026-07-01T11:39:22Z</time>
					</trkpt>
					<trkpt lat="50.329900" lon="4.310880">
						<ele>191</ele>
						<time>2026-07-01T11:40:05Z</time>
					</trkpt>
					<trkpt lat="50.329760" lon="4.310820">
						<ele>191</ele>
						<time>2026-07-01T11:40:24Z</time>
					</trkpt>
					<trkpt lat="50.329660" lon="4.310810">
						<ele>191</ele>
						<time>2026-07-01T11:40:37Z</time>
					</trkpt>
					<trkpt lat="50.329510" lon="4.310850">
						<ele>190</ele>
						<time>2026-07-01T11:40:58Z</time>
					</trkpt>
					<trkpt lat="50.329380" lon="4.310900">
						<ele>190</ele>
						<time>2026-07-01T11:41:15Z</time>
					</trkpt>
					<trkpt lat="50.329170" lon="4.311020">
						<ele>190</ele>
						<time>2026-07-01T11:41:45Z</time>
					</trkpt>
					<trkpt lat="50.328880" lon="4.311150">
						<ele>189</ele>
						<time>2026-07-01T11:42:26Z</time>
					</trkpt>
					<trkpt lat="50.328900" lon="4.311080">
						<ele>189</ele>
						<time>2026-07-01T11:42:32Z</time>
					</trkpt>
					<trkpt lat="50.328900" lon="4.311010">
						<ele>189</ele>
						<time>2026-07-01T11:42:38Z</time>
					</trkpt>
					<trkpt lat="50.328890" lon="4.310570">
						<ele>189</ele>
						<time>2026-07-01T11:43:16Z</time>
					</trkpt>
					<trkpt lat="50.328880" lon="4.310300">
						<ele>189</ele>
						<time>2026-07-01T11:43:39Z</time>
					</trkpt>
					<trkpt lat="50.328900" lon="4.309720">
						<ele>189</ele>
						<time>2026-07-01T11:44:28Z</time>
					</trkpt>
					<trkpt lat="50.328950" lon="4.309310">
						<ele>189</ele>
						<time>2026-07-01T11:45:04Z</time>
					</trkpt>
					<trkpt lat="50.328990" lon="4.309160">
						<ele>189</ele>
						<time>2026-07-01T11:45:17Z</time>
					</trkpt>
					<trkpt lat="50.329050" lon="4.308960">
						<ele>190</ele>
						<time>2026-07-01T11:45:36Z</time>
					</trkpt>
					<trkpt lat="50.329390" lon="4.307940">
						<ele>192</ele>
						<time>2026-07-01T11:47:14Z</time>
					</trkpt>
					<trkpt lat="50.329590" lon="4.307450">
						<ele>191</ele>
						<time>2026-07-01T11:48:04Z</time>
					</trkpt>
					<trkpt lat="50.330070" lon="4.306340">
						<ele>188</ele>
						<time>2026-07-01T11:49:58Z</time>
					</trkpt>
					<trkpt lat="50.330460" lon="4.305410">
						<ele>186</ele>
						<time>2026-07-01T11:51:33Z</time>
					</trkpt>
					<trkpt lat="50.330540" lon="4.305240">
						<ele>185</ele>
						<time>2026-07-01T11:51:51Z</time>
					</trkpt>
					<trkpt lat="50.330640" lon="4.305070">
						<ele>185</ele>
						<time>2026-07-01T11:52:11Z</time>
					</trkpt>
					<trkpt lat="50.330740" lon="4.304920">
						<ele>185</ele>
						<time>2026-07-01T11:52:29Z</time>
					</trkpt>
					<trkpt lat="50.331650" lon="4.303780">
						<ele>185</ele>
						<time>2026-07-01T11:55:05Z</time>
					</trkpt>
					<trkpt lat="50.332140" lon="4.303180">
						<ele>185</ele>
						<time>2026-07-01T11:56:28Z</time>
					</trkpt>
					<trkpt lat="50.332170" lon="4.303120">
						<ele>185</ele>
						<time>2026-07-01T11:56:34Z</time>
					</trkpt>
					<trkpt lat="50.332230" lon="4.302960">
						<ele>185</ele>
						<time>2026-07-01T11:56:50Z</time>
					</trkpt>
					<trkpt lat="50.332390" lon="4.302420">
						<ele>186</ele>
						<time>2026-07-01T11:57:41Z</time>
					</trkpt>
					<trkpt lat="50.332410" lon="4.302280">
						<ele>186</ele>
						<time>2026-07-01T11:57:53Z</time>
					</trkpt>
					<trkpt lat="50.332360" lon="4.301370">
						<ele>184</ele>
						<time>2026-07-01T11:59:11Z</time>
					</trkpt>
					<trkpt lat="50.332370" lon="4.301230">
						<ele>184</ele>
						<time>2026-07-01T11:59:23Z</time>
					</trkpt>
					<trkpt lat="50.332380" lon="4.301160">
						<ele>184</ele>
						<time>2026-07-01T11:59:29Z</time>
					</trkpt>
					<trkpt lat="50.332600" lon="4.300530">
						<ele>183</ele>
						<time>2026-07-01T12:00:30Z</time>
					</trkpt>
					<trkpt lat="50.332650" lon="4.300360">
						<ele>182</ele>
						<time>2026-07-01T12:00:46Z</time>
					</trkpt>
					<trkpt lat="50.332670" lon="4.300380">
						<ele>183</ele>
						<time>2026-07-01T12:00:49Z</time>
					</trkpt>
					<trkpt lat="50.332650" lon="4.300360">
						<ele>182</ele>
						<time>2026-07-01T12:00:52Z</time>
					</trkpt>
					<trkpt lat="50.332670" lon="4.300230">
						<ele>182</ele>
						<time>2026-07-01T12:01:04Z</time>
					</trkpt>
					<trkpt lat="50.332700" lon="4.300180">
						<ele>182</ele>
						<time>2026-07-01T12:01:09Z</time>
					</trkpt>
					<trkpt lat="50.332910" lon="4.299750">
						<ele>181</ele>
						<time>2026-07-01T12:01:55Z</time>
					</trkpt>
					<trkpt lat="50.332990" lon="4.299610">
						<ele>180</ele>
						<time>2026-07-01T12:02:11Z</time>
					</trkpt>
					<trkpt lat="50.333130" lon="4.299360">
						<ele>180</ele>
						<time>2026-07-01T12:02:40Z</time>
					</trkpt>
					<trkpt lat="50.333430" lon="4.298790">
						<ele>178</ele>
						<time>2026-07-01T12:03:43Z</time>
					</trkpt>
					<trkpt lat="50.333580" lon="4.298520">
						<ele>176</ele>
						<time>2026-07-01T12:04:13Z</time>
					</trkpt>
					<trkpt lat="50.333400" lon="4.298450">
						<ele>176</ele>
						<time>2026-07-01T12:04:38Z</time>
					</trkpt>
					<trkpt lat="50.333680" lon="4.297810">
						<ele>172</ele>
						<time>2026-07-01T12:05:44Z</time>
					</trkpt>
					<trkpt lat="50.333860" lon="4.297170">
						<ele>172</ele>
						<time>2026-07-01T12:06:44Z</time>
					</trkpt>
					<trkpt lat="50.333860" lon="4.296760">
						<ele>171</ele>
						<time>2026-07-01T12:07:19Z</time>
					</trkpt>
					<trkpt lat="50.333870" lon="4.296700">
						<ele>171</ele>
						<time>2026-07-01T12:07:24Z</time>
					</trkpt>
					<trkpt lat="50.333880" lon="4.296380">
						<ele>172</ele>
						<time>2026-07-01T12:07:51Z</time>
					</trkpt>
					<trkpt lat="50.334370" lon="4.296250">
						<ele>178</ele>
						<time>2026-07-01T12:08:57Z</time>
					</trkpt>
					<trkpt lat="50.334380" lon="4.296220">
						<ele>178</ele>
						<time>2026-07-01T12:09:00Z</time>
					</trkpt>
					<trkpt lat="50.334370" lon="4.296250">
						<ele>178</ele>
						<time>2026-07-01T12:09:03Z</time>
					</trkpt>
					<trkpt lat="50.334390" lon="4.295320">
						<ele>178</ele>
						<time>2026-07-01T12:10:22Z</time>
					</trkpt>
					<trkpt lat="50.334400" lon="4.295210">
						<ele>177</ele>
						<time>2026-07-01T12:10:32Z</time>
					</trkpt>
					<trkpt lat="50.334410" lon="4.295020">
						<ele>177</ele>
						<time>2026-07-01T12:10:48Z</time>
					</trkpt>
					<trkpt lat="50.334470" lon="4.294360">
						<ele>175</ele>
						<time>2026-07-01T12:11:45Z</time>
					</trkpt>
					<trkpt lat="50.334500" lon="4.294030">
						<ele>174</ele>
						<time>2026-07-01T12:12:13Z</time>
					</trkpt>
					<trkpt lat="50.334520" lon="4.293850">
						<ele>174</ele>
						<time>2026-07-01T12:12:29Z</time>
					</trkpt>
					<trkpt lat="50.334540" lon="4.293570">
						<ele>173</ele>
						<time>2026-07-01T12:12:53Z</time>
					</trkpt>
					<trkpt lat="50.334560" lon="4.293400">
						<ele>173</ele>
						<time>2026-07-01T12:13:08Z</time>
					</trkpt>
					<trkpt lat="50.334700" lon="4.292550">
						<ele>171</ele>
						<time>2026-07-01T12:14:22Z</time>
					</trkpt>
					<trkpt lat="50.334870" lon="4.292090">
						<ele>169</ele>
						<time>2026-07-01T12:15:08Z</time>
					</trkpt>
					<trkpt lat="50.334920" lon="4.291850">
						<ele>169</ele>
						<time>2026-07-01T12:15:29Z</time>
					</trkpt>
					<trkpt lat="50.335090" lon="4.291730">
						<ele>167</ele>
						<time>2026-07-01T12:15:54Z</time>
					</trkpt>
					<trkpt lat="50.335230" lon="4.291530">
						<ele>165</ele>
						<time>2026-07-01T12:16:19Z</time>
					</trkpt>
					<trkpt lat="50.335330" lon="4.291370">
						<ele>162</ele>
						<time>2026-07-01T12:16:38Z</time>
					</trkpt>
					<trkpt lat="50.335540" lon="4.290990">
						<ele>157</ele>
						<time>2026-07-01T12:17:21Z</time>
					</trkpt>
					<trkpt lat="50.335730" lon="4.290700">
						<ele>151</ele>
						<time>2026-07-01T12:17:57Z</time>
					</trkpt>
					<trkpt lat="50.335710" lon="4.290610">
						<ele>150</ele>
						<time>2026-07-01T12:18:05Z</time>
					</trkpt>
					<trkpt lat="50.335620" lon="4.290530">
						<ele>151</ele>
						<time>2026-07-01T12:18:19Z</time>
					</trkpt>
					<trkpt lat="50.335220" lon="4.290280">
						<ele>155</ele>
						<time>2026-07-01T12:19:16Z</time>
					</trkpt>
					<trkpt lat="50.335210" lon="4.290270">
						<ele>155</ele>
						<time>2026-07-01T12:19:18Z</time>
					</trkpt>
					<trkpt lat="50.335090" lon="4.290250">
						<ele>156</ele>
						<time>2026-07-01T12:19:34Z</time>
					</trkpt>
					<trkpt lat="50.334950" lon="4.290270">
						<ele>159</ele>
						<time>2026-07-01T12:19:52Z</time>
					</trkpt>
					<trkpt lat="50.334760" lon="4.290230">
						<ele>161</ele>
						<time>2026-07-01T12:20:18Z</time>
					</trkpt>
					<trkpt lat="50.334390" lon="4.290110">
						<ele>165</ele>
						<time>2026-07-01T12:21:08Z</time>
					</trkpt>
					<trkpt lat="50.334270" lon="4.290100">
						<ele>167</ele>
						<time>2026-07-01T12:21:25Z</time>
					</trkpt>
					<trkpt lat="50.334200" lon="4.290190">
						<ele>169</ele>
						<time>2026-07-01T12:21:37Z</time>
					</trkpt>
					<trkpt lat="50.334090" lon="4.290090">
						<ele>169</ele>
						<time>2026-07-01T12:21:54Z</time>
					</trkpt>
					<trkpt lat="50.333810" lon="4.289940">
						<ele>170</ele>
						<time>2026-07-01T12:22:33Z</time>
					</trkpt>
					<trkpt lat="50.333600" lon="4.289590">
						<ele>166</ele>
						<time>2026-07-01T12:23:14Z</time>
					</trkpt>
					<trkpt lat="50.333060" lon="4.289170">
						<ele>164</ele>
						<time>2026-07-01T12:24:34Z</time>
					</trkpt>
					<trkpt lat="50.332860" lon="4.289100">
						<ele>162</ele>
						<time>2026-07-01T12:25:02Z</time>
					</trkpt>
					<trkpt lat="50.332360" lon="4.288720">
						<ele>154</ele>
						<time>2026-07-01T12:26:16Z</time>
					</trkpt>
					<trkpt lat="50.332340" lon="4.288710">
						<ele>153</ele>
						<time>2026-07-01T12:26:19Z</time>
					</trkpt>
					<trkpt lat="50.332200" lon="4.288830">
						<ele>154</ele>
						<time>2026-07-01T12:26:40Z</time>
					</trkpt>
					<trkpt lat="50.332020" lon="4.288980">
						<ele>154</ele>
						<time>2026-07-01T12:27:07Z</time>
					</trkpt>
					<trkpt lat="50.331900" lon="4.289090">
						<ele>154</ele>
						<time>2026-07-01T12:27:26Z</time>
					</trkpt>
					<trkpt lat="50.331700" lon="4.289620">
						<ele>156</ele>
						<time>2026-07-01T12:28:18Z</time>
					</trkpt>
					<trkpt lat="50.331610" lon="4.290030">
						<ele>158</ele>
						<time>2026-07-01T12:28:55Z</time>
					</trkpt>
					<trkpt lat="50.331570" lon="4.290230">
						<ele>158</ele>
						<time>2026-07-01T12:29:13Z</time>
					</trkpt>
					<trkpt lat="50.331430" lon="4.290790">
						<ele>160</ele>
						<time>2026-07-01T12:30:04Z</time>
					</trkpt>
					<trkpt lat="50.331280" lon="4.291380">
						<ele>159</ele>
						<time>2026-07-01T12:30:58Z</time>
					</trkpt>
					<trkpt lat="50.331110" lon="4.291850">
						<ele>156</ele>
						<time>2026-07-01T12:31:44Z</time>
					</trkpt>
					<trkpt lat="50.330880" lon="4.291830">
						<ele>154</ele>
						<time>2026-07-01T12:32:15Z</time>
					</trkpt>
					<trkpt lat="50.330760" lon="4.291890">
						<ele>152</ele>
						<time>2026-07-01T12:32:32Z</time>
					</trkpt>
					<trkpt lat="50.330660" lon="4.292100">
						<ele>149</ele>
						<time>2026-07-01T12:32:54Z</time>
					</trkpt>
					<trkpt lat="50.330510" lon="4.292460">
						<ele>145</ele>
						<time>2026-07-01T12:33:31Z</time>
					</trkpt>
					<trkpt lat="50.330370" lon="4.292720">
						<ele>142</ele>
						<time>2026-07-01T12:34:00Z</time>
					</trkpt>
					<trkpt lat="50.330220" lon="4.292720">
						<ele>140</ele>
						<time>2026-07-01T12:34:20Z</time>
					</trkpt>
					<trkpt lat="50.330180" lon="4.292720">
						<ele>140</ele>
						<time>2026-07-01T12:34:25Z</time>
					</trkpt>
					<trkpt lat="50.330090" lon="4.293080">
						<ele>138</ele>
						<time>2026-07-01T12:34:58Z</time>
					</trkpt>
					<trkpt lat="50.329950" lon="4.293640">
						<ele>141</ele>
						<time>2026-07-01T12:35:49Z</time>
					</trkpt>
					<trkpt lat="50.329480" lon="4.295520">
						<ele>143</ele>
						<time>2026-07-01T12:38:41Z</time>
					</trkpt>
					<trkpt lat="50.329280" lon="4.296090">
						<ele>139</ele>
						<time>2026-07-01T12:39:37Z</time>
					</trkpt>
					<trkpt lat="50.329040" lon="4.296660">
						<ele>138</ele>
						<time>2026-07-01T12:40:35Z</time>
					</trkpt>
					<trkpt lat="50.328820" lon="4.297100">
						<ele>141</ele>
						<time>2026-07-01T12:41:23Z</time>
					</trkpt>
					<trkpt lat="50.328800" lon="4.297140">
						<ele>141</ele>
						<time>2026-07-01T12:41:27Z</time>
					</trkpt>
					<trkpt lat="50.328840" lon="4.297190">
						<ele>140</ele>
						<time>2026-07-01T12:41:34Z</time>
					</trkpt>
					<trkpt lat="50.328930" lon="4.297240">
						<ele>139</ele>
						<time>2026-07-01T12:41:46Z</time>
					</trkpt>
					<trkpt lat="50.329070" lon="4.297240">
						<ele>136</ele>
						<time>2026-07-01T12:42:05Z</time>
					</trkpt>
					<trkpt lat="50.329360" lon="4.297190">
						<ele>135</ele>
						<time>2026-07-01T12:42:44Z</time>
					</trkpt>
					<trkpt lat="50.329730" lon="4.297090">
						<ele>135</ele>
						<time>2026-07-01T12:43:34Z</time>
					</trkpt>
					<trkpt lat="50.329880" lon="4.297110">
						<ele>135</ele>
						<time>2026-07-01T12:43:54Z</time>
					</trkpt>
					<trkpt lat="50.329960" lon="4.297140">
						<ele>135</ele>
						<time>2026-07-01T12:44:05Z</time>
					</trkpt>
					<trkpt lat="50.330160" lon="4.297160">
						<ele>135</ele>
						<time>2026-07-01T12:44:32Z</time>
					</trkpt>
					<trkpt lat="50.330480" lon="4.297120">
						<ele>136</ele>
						<time>2026-07-01T12:45:15Z</time>
					</trkpt>
					<trkpt lat="50.330560" lon="4.297130">
						<ele>137</ele>
						<time>2026-07-01T12:45:26Z</time>
					</trkpt>
					<trkpt lat="50.330640" lon="4.297150">
						<ele>137</ele>
						<time>2026-07-01T12:45:36Z</time>
					</trkpt>
					<trkpt lat="50.330640" lon="4.297300">
						<ele>138</ele>
						<time>2026-07-01T12:45:49Z</time>
					</trkpt>
					<trkpt lat="50.330600" lon="4.297550">
						<ele>140</ele>
						<time>2026-07-01T12:46:11Z</time>
					</trkpt>
					<trkpt lat="50.330490" lon="4.297880">
						<ele>143</ele>
						<time>2026-07-01T12:46:43Z</time>
					</trkpt>
					<trkpt lat="50.330450" lon="4.297990">
						<ele>143</ele>
						<time>2026-07-01T12:46:54Z</time>
					</trkpt>
					<trkpt lat="50.330400" lon="4.298080">
						<ele>143</ele>
						<time>2026-07-01T12:47:04Z</time>
					</trkpt>
					<trkpt lat="50.330310" lon="4.298190">
						<ele>143</ele>
						<time>2026-07-01T12:47:19Z</time>
					</trkpt>
					<trkpt lat="50.330130" lon="4.298470">
						<ele>144</ele>
						<time>2026-07-01T12:47:53Z</time>
					</trkpt>
					<trkpt lat="50.329960" lon="4.298780">
						<ele>147</ele>
						<time>2026-07-01T12:48:28Z</time>
					</trkpt>
					<trkpt lat="50.329920" lon="4.298840">
						<ele>148</ele>
						<time>2026-07-01T12:48:35Z</time>
					</trkpt>
					<trkpt lat="50.329830" lon="4.298920">
						<ele>149</ele>
						<time>2026-07-01T12:48:49Z</time>
					</trkpt>
					<trkpt lat="50.329770" lon="4.298950">
						<ele>149</ele>
						<time>2026-07-01T12:48:57Z</time>
					</trkpt>
					<trkpt lat="50.329660" lon="4.298980">
						<ele>148</ele>
						<time>2026-07-01T12:49:12Z</time>
					</trkpt>
					<trkpt lat="50.329280" lon="4.299000">
						<ele>145</ele>
						<time>2026-07-01T12:50:03Z</time>
					</trkpt>
					<trkpt lat="50.329180" lon="4.299020">
						<ele>144</ele>
						<time>2026-07-01T12:50:16Z</time>
					</trkpt>
					<trkpt lat="50.328890" lon="4.299090">
						<ele>145</ele>
						<time>2026-07-01T12:50:56Z</time>
					</trkpt>
					<trkpt lat="50.328260" lon="4.299220">
						<ele>146</ele>
						<time>2026-07-01T12:52:20Z</time>
					</trkpt>
					<trkpt lat="50.327920" lon="4.299320">
						<ele>146</ele>
						<time>2026-07-01T12:53:06Z</time>
					</trkpt>
					<trkpt lat="50.327720" lon="4.299390">
						<ele>146</ele>
						<time>2026-07-01T12:53:34Z</time>
					</trkpt>
					<trkpt lat="50.327580" lon="4.299460">
						<ele>146</ele>
						<time>2026-07-01T12:53:53Z</time>
					</trkpt>
					<trkpt lat="50.327440" lon="4.299560">
						<ele>146</ele>
						<time>2026-07-01T12:54:14Z</time>
					</trkpt>
					<trkpt lat="50.327300" lon="4.299690">
						<ele>146</ele>
						<time>2026-07-01T12:54:36Z</time>
					</trkpt>
					<trkpt lat="50.327190" lon="4.299800">
						<ele>146</ele>
						<time>2026-07-01T12:54:53Z</time>
					</trkpt>
					<trkpt lat="50.327030" lon="4.300000">
						<ele>145</ele>
						<time>2026-07-01T12:55:20Z</time>
					</trkpt>
					<trkpt lat="50.326970" lon="4.300090">
						<ele>146</ele>
						<time>2026-07-01T12:55:32Z</time>
					</trkpt>
					<trkpt lat="50.326920" lon="4.300190">
						<ele>146</ele>
						<time>2026-07-01T12:55:42Z</time>
					</trkpt>
					<trkpt lat="50.326860" lon="4.300320">
						<ele>147</ele>
						<time>2026-07-01T12:55:56Z</time>
					</trkpt>
					<trkpt lat="50.326600" lon="4.301130">
						<ele>147</ele>
						<time>2026-07-01T12:57:13Z</time>
					</trkpt>
					<trkpt lat="50.326540" lon="4.301420">
						<ele>148</ele>
						<time>2026-07-01T12:57:39Z</time>
					</trkpt>
					<trkpt lat="50.326530" lon="4.301510">
						<ele>148</ele>
						<time>2026-07-01T12:57:47Z</time>
					</trkpt>
					<trkpt lat="50.326520" lon="4.301690">
						<ele>148</ele>
						<time>2026-07-01T12:58:02Z</time>
					</trkpt>
					<trkpt lat="50.326530" lon="4.301740">
						<ele>148</ele>
						<time>2026-07-01T12:58:07Z</time>
					</trkpt>
					<trkpt lat="50.326540" lon="4.301830">
						<ele>148</ele>
						<time>2026-07-01T12:58:15Z</time>
					</trkpt>
					<trkpt lat="50.326610" lon="4.302040">
						<ele>149</ele>
						<time>2026-07-01T12:58:35Z</time>
					</trkpt>
					<trkpt lat="50.326900" lon="4.302710">
						<ele>155</ele>
						<time>2026-07-01T12:59:44Z</time>
					</trkpt>
					<trkpt lat="50.327150" lon="4.303370">
						<ele>160</ele>
						<time>2026-07-01T13:00:49Z</time>
					</trkpt>
					<trkpt lat="50.327200" lon="4.303520">
						<ele>162</ele>
						<time>2026-07-01T13:01:04Z</time>
					</trkpt>
					<trkpt lat="50.327230" lon="4.303610">
						<ele>162</ele>
						<time>2026-07-01T13:01:12Z</time>
					</trkpt>
					<trkpt lat="50.327230" lon="4.303680">
						<ele>162</ele>
						<time>2026-07-01T13:01:18Z</time>
					</trkpt>
					<trkpt lat="50.327220" lon="4.303790">
						<ele>162</ele>
						<time>2026-07-01T13:01:28Z</time>
					</trkpt>
					<trkpt lat="50.327200" lon="4.303880">
						<ele>162</ele>
						<time>2026-07-01T13:01:36Z</time>
					</trkpt>
					<trkpt lat="50.327140" lon="4.303970">
						<ele>160</ele>
						<time>2026-07-01T13:01:47Z</time>
					</trkpt>
					<trkpt lat="50.327080" lon="4.304030">
						<ele>159</ele>
						<time>2026-07-01T13:01:56Z</time>
					</trkpt>
					<trkpt lat="50.326920" lon="4.304140">
						<ele>156</ele>
						<time>2026-07-01T13:02:20Z</time>
					</trkpt>
					<trkpt lat="50.326640" lon="4.304270">
						<ele>153</ele>
						<time>2026-07-01T13:02:59Z</time>
					</trkpt>
					<trkpt lat="50.326070" lon="4.304500">
						<ele>150</ele>
						<time>2026-07-01T13:04:17Z</time>
					</trkpt>
					<trkpt lat="50.325870" lon="4.304600">
						<ele>150</ele>
						<time>2026-07-01T13:04:45Z</time>
					</trkpt>
					<trkpt lat="50.325750" lon="4.304710">
						<ele>151</ele>
						<time>2026-07-01T13:05:04Z</time>
					</trkpt>
					<trkpt lat="50.325700" lon="4.304760">
						<ele>152</ele>
						<time>2026-07-01T13:05:12Z</time>
					</trkpt>
					<trkpt lat="50.325670" lon="4.304820">
						<ele>152</ele>
						<time>2026-07-01T13:05:18Z</time>
					</trkpt>
					<trkpt lat="50.325640" lon="4.304880">
						<ele>153</ele>
						<time>2026-07-01T13:05:25Z</time>
					</trkpt>
					<trkpt lat="50.325650" lon="4.305020">
						<ele>155</ele>
						<time>2026-07-01T13:05:37Z</time>
					</trkpt>
					<trkpt lat="50.325700" lon="4.305140">
						<ele>156</ele>
						<time>2026-07-01T13:05:49Z</time>
					</trkpt>
					<trkpt lat="50.325990" lon="4.305570">
						<ele>162</ele>
						<time>2026-07-01T13:06:42Z</time>
					</trkpt>
					<trkpt lat="50.326110" lon="4.305780">
						<ele>165</ele>
						<time>2026-07-01T13:07:06Z</time>
					</trkpt>
					<trkpt lat="50.326190" lon="4.305970">
						<ele>167</ele>
						<time>2026-07-01T13:07:26Z</time>
					</trkpt>
					<trkpt lat="50.326210" lon="4.306020">
						<ele>167</ele>
						<time>2026-07-01T13:07:31Z</time>
					</trkpt>
					<trkpt lat="50.326080" lon="4.306050">
						<ele>166</ele>
						<time>2026-07-01T13:07:48Z</time>
					</trkpt>
					<trkpt lat="50.326080" lon="4.306310">
						<ele>168</ele>
						<time>2026-07-01T13:08:10Z</time>
					</trkpt>
					<trkpt lat="50.326260" lon="4.306920">
						<ele>173</ele>
						<time>2026-07-01T13:09:08Z</time>
					</trkpt>
					<trkpt lat="50.326500" lon="4.307500">
						<ele>177</ele>
						<time>2026-07-01T13:10:06Z</time>
					</trkpt>
					<trkpt lat="50.326800" lon="4.308300">
						<ele>180</ele>
						<time>2026-07-01T13:11:25Z</time>
					</trkpt>
					<trkpt lat="50.327070" lon="4.308670">
						<ele>183</ele>
						<time>2026-07-01T13:12:13Z</time>
					</trkpt>
					<trkpt lat="50.327140" lon="4.308850">
						<ele>183</ele>
						<time>2026-07-01T13:12:31Z</time>
					</trkpt>
					<trkpt lat="50.327270" lon="4.309050">
						<ele>185</ele>
						<time>2026-07-01T13:12:56Z</time>
					</trkpt>
					<trkpt lat="50.327470" lon="4.309140">
						<ele>187</ele>
						<time>2026-07-01T13:13:23Z</time>
					</trkpt>
					<trkpt lat="50.327660" lon="4.309500">
						<ele>186</ele>
						<time>2026-07-01T13:14:03Z</time>
					</trkpt>
					<trkpt lat="50.327920" lon="4.309820">
						<ele>186</ele>
						<time>2026-07-01T13:14:47Z</time>
					</trkpt>
					<trkpt lat="50.328220" lon="4.310280">
						<ele>187</ele>
						<time>2026-07-01T13:15:43Z</time>
					</trkpt>
					<trkpt lat="50.328600" lon="4.310440">
						<ele>188</ele>
						<time>2026-07-01T13:16:36Z</time>
					</trkpt>
					<trkpt lat="50.328890" lon="4.310570">
						<ele>189</ele>
						<time>2026-07-01T13:17:16Z</time>
					</trkpt>
					<trkpt lat="50.328900" lon="4.311010">
						<ele>189</ele>
						<time>2026-07-01T13:17:54Z</time>
					</trkpt>
					<trkpt lat="50.328900" lon="4.311080">
						<ele>189</ele>
						<time>2026-07-01T13:18:00Z</time>
					</trkpt>
					<trkpt lat="50.328880" lon="4.311150">
						<ele>189</ele>
						<time>2026-07-01T13:18:06Z</time>
					</trkpt>
					<trkpt lat="50.328810" lon="4.311270">
						<ele>188</ele>
						<time>2026-07-01T13:18:20Z</time>
					</trkpt>
					<trkpt lat="50.328720" lon="4.311340">
						<ele>188</ele>
						<time>2026-07-01T13:18:33Z</time>
					</trkpt>
					<trkpt lat="50.328570" lon="4.311420">
						<ele>187</ele>
						<time>2026-07-01T13:18:54Z</time>
					</trkpt>
					<trkpt lat="50.328260" lon="4.311530">
						<ele>186</ele>
						<time>2026-07-01T13:19:37Z</time>
					</trkpt>
					<trkpt lat="50.327180" lon="4.311770">
						<ele>185</ele>
						<time>2026-07-01T13:22:02Z</time>
					</trkpt>
					<trkpt lat="50.327200" lon="4.311900">
						<ele>185</ele>
						<time>2026-07-01T13:22:14Z</time>
					</trkpt>
					<trkpt lat="50.327260" lon="4.312500">
						<ele>188</ele>
						<time>2026-07-01T13:23:06Z</time>
					</trkpt>
					<trkpt lat="50.327120" lon="4.313020">
						<ele>190</ele>
						<time>2026-07-01T13:23:54Z</time>
					</trkpt>
					<trkpt lat="50.327030" lon="4.313140">
						<ele>190</ele>
						<time>2026-07-01T13:24:09Z</time>
					</trkpt>
					<trkpt lat="50.326910" lon="4.313360">
						<ele>191</ele>
						<time>2026-07-01T13:24:34Z</time>
					</trkpt>
					<trkpt lat="50.326850" lon="4.313930">
						<ele>189</ele>
						<time>2026-07-01T13:25:23Z</time>
					</trkpt>
					<trkpt lat="50.326760" lon="4.314150">
						<ele>189</ele>
						<time>2026-07-01T13:25:46Z</time>
					</trkpt>
					<trkpt lat="50.326670" lon="4.314310">
						<ele>189</ele>
						<time>2026-07-01T13:26:04Z</time>
					</trkpt>
					<trkpt lat="50.326530" lon="4.314490">
						<ele>187</ele>
						<time>2026-07-01T13:26:28Z</time>
					</trkpt>
					<trkpt lat="50.326450" lon="4.314670">
						<ele>186</ele>
						<time>2026-07-01T13:26:47Z</time>
					</trkpt>
					<trkpt lat="50.326380" lon="4.314910">
						<ele>185</ele>
						<time>2026-07-01T13:27:09Z</time>
					</trkpt>
					<trkpt lat="50.326340" lon="4.315120">
						<ele>184</ele>
						<time>2026-07-01T13:27:28Z</time>
					</trkpt>
					<trkpt lat="50.326330" lon="4.315350">
						<ele>184</ele>
						<time>2026-07-01T13:27:47Z</time>
					</trkpt>
					<trkpt lat="50.326330" lon="4.315780">
						<ele>184</ele>
						<time>2026-07-01T13:28:24Z</time>
					</trkpt>
					<trkpt lat="50.326280" lon="4.316220">
						<ele>182</ele>
						<time>2026-07-01T13:29:02Z</time>
					</trkpt>
					<trkpt lat="50.326230" lon="4.316790">
						<ele>180</ele>
						<time>2026-07-01T13:29:51Z</time>
					</trkpt>
					<trkpt lat="50.326290" lon="4.317340">
						<ele>179</ele>
						<time>2026-07-01T13:30:39Z</time>
					</trkpt>
					<trkpt lat="50.326460" lon="4.317820">
						<ele>180</ele>
						<time>2026-07-01T13:31:25Z</time>
					</trkpt>
					<trkpt lat="50.326510" lon="4.318130">
						<ele>180</ele>
						<time>2026-07-01T13:31:53Z</time>
					</trkpt>
					<trkpt lat="50.326510" lon="4.318440">
						<ele>179</ele>
						<time>2026-07-01T13:32:19Z</time>
					</trkpt>
					<trkpt lat="50.326330" lon="4.319100">
						<ele>175</ele>
						<time>2026-07-01T13:33:20Z</time>
					</trkpt>
					<trkpt lat="50.326180" lon="4.319560">
						<ele>172</ele>
						<time>2026-07-01T13:34:04Z</time>
					</trkpt>
					<trkpt lat="50.326150" lon="4.319690">
						<ele>172</ele>
						<time>2026-07-01T13:34:16Z</time>
					</trkpt>
					<trkpt lat="50.326180" lon="4.319810">
						<ele>172</ele>
						<time>2026-07-01T13:34:27Z</time>
					</trkpt>
					<trkpt lat="50.326260" lon="4.319890">
						<ele>172</ele>
						<time>2026-07-01T13:34:40Z</time>
					</trkpt>
					<trkpt lat="50.326500" lon="4.320230">
						<ele>172</ele>
						<time>2026-07-01T13:35:23Z</time>
					</trkpt>
					<trkpt lat="50.326970" lon="4.320970">
						<ele>174</ele>
						<time>2026-07-01T13:36:52Z</time>
					</trkpt>
					<trkpt lat="50.327350" lon="4.321600">
						<ele>178</ele>
						<time>2026-07-01T13:38:06Z</time>
					</trkpt>
					<trkpt lat="50.327780" lon="4.322280">
						<ele>183</ele>
						<time>2026-07-01T13:39:27Z</time>
					</trkpt>
					<trkpt lat="50.327630" lon="4.322410">
						<ele>181</ele>
						<time>2026-07-01T13:39:50Z</time>
					</trkpt>
					<trkpt lat="50.326800" lon="4.323200">
						<ele>172</ele>
						<time>2026-07-01T13:42:00Z</time>
					</trkpt>
					<trkpt lat="50.326600" lon="4.323350">
						<ele>170</ele>
						<time>2026-07-01T13:42:29Z</time>
					</trkpt>
					<trkpt lat="50.326490" lon="4.323390">
						<ele>169</ele>
						<time>2026-07-01T13:42:44Z</time>
					</trkpt>
					<trkpt lat="50.326360" lon="4.323420">
						<ele>167</ele>
						<time>2026-07-01T13:43:02Z</time>
					</trkpt>
					<trkpt lat="50.325980" lon="4.323410">
						<ele>163</ele>
						<time>2026-07-01T13:43:52Z</time>
					</trkpt>
					<trkpt lat="50.325890" lon="4.323430">
						<ele>162</ele>
						<time>2026-07-01T13:44:05Z</time>
					</trkpt>
					<trkpt lat="50.325800" lon="4.323470">
						<ele>161</ele>
						<time>2026-07-01T13:44:17Z</time>
					</trkpt>
					<trkpt lat="50.325730" lon="4.323520">
						<ele>160</ele>
						<time>2026-07-01T13:44:27Z</time>
					</trkpt>
					<trkpt lat="50.325680" lon="4.323570">
						<ele>160</ele>
						<time>2026-07-01T13:44:35Z</time>
					</trkpt>
					<trkpt lat="50.325540" lon="4.323760">
						<ele>158</ele>
						<time>2026-07-01T13:45:00Z</time>
					</trkpt>
					<trkpt lat="50.324740" lon="4.325060">
						<ele>159</ele>
						<time>2026-07-01T13:47:34Z</time>
					</trkpt>
					<trkpt lat="50.324340" lon="4.325690">
						<ele>165</ele>
						<time>2026-07-01T13:48:50Z</time>
					</trkpt>
					<trkpt lat="50.324250" lon="4.325750">
						<ele>166</ele>
						<time>2026-07-01T13:49:03Z</time>
					</trkpt>
					<trkpt lat="50.324170" lon="4.325780">
						<ele>167</ele>
						<time>2026-07-01T13:49:14Z</time>
					</trkpt>
					<trkpt lat="50.323930" lon="4.325780">
						<ele>167</ele>
						<time>2026-07-01T13:49:46Z</time>
					</trkpt>
					<trkpt lat="50.323840" lon="4.325800">
						<ele>167</ele>
						<time>2026-07-01T13:49:58Z</time>
					</trkpt>
					<trkpt lat="50.323750" lon="4.325840">
						<ele>167</ele>
						<time>2026-07-01T13:50:10Z</time>
					</trkpt>
					<trkpt lat="50.323700" lon="4.325880">
						<ele>167</ele>
						<time>2026-07-01T13:50:18Z</time>
					</trkpt>
					<trkpt lat="50.323650" lon="4.325950">
						<ele>167</ele>
						<time>2026-07-01T13:50:27Z</time>
					</trkpt>
					<trkpt lat="50.323370" lon="4.326600">
						<ele>169</ele>
						<time>2026-07-01T13:51:33Z</time>
					</trkpt>
					<trkpt lat="50.323320" lon="4.326770">
						<ele>169</ele>
						<time>2026-07-01T13:51:49Z</time>
					</trkpt>
					<trkpt lat="50.323280" lon="4.326970">
						<ele>170</ele>
						<time>2026-07-01T13:52:07Z</time>
					</trkpt>
					<trkpt lat="50.323250" lon="4.327210">
						<ele>170</ele>
						<time>2026-07-01T13:52:28Z</time>
					</trkpt>
					<trkpt lat="50.323210" lon="4.328480">
						<ele>176</ele>
						<time>2026-07-01T13:54:16Z</time>
					</trkpt>
					<trkpt lat="50.323190" lon="4.328620">
						<ele>176</ele>
						<time>2026-07-01T13:54:29Z</time>
					</trkpt>
					<trkpt lat="50.323170" lon="4.328710">
						<ele>176</ele>
						<time>2026-07-01T13:54:37Z</time>
					</trkpt>
					<trkpt lat="50.323020" lon="4.329020">
						<ele>177</ele>
						<time>2026-07-01T13:55:10Z</time>
					</trkpt>
					<trkpt lat="50.322530" lon="4.329690">
						<ele>179</ele>
						<time>2026-07-01T13:56:37Z</time>
					</trkpt>
					<trkpt lat="50.322430" lon="4.329800">
						<ele>179</ele>
						<time>2026-07-01T13:56:53Z</time>
					</trkpt>
					<trkpt lat="50.322330" lon="4.329890">
						<ele>180</ele>
						<time>2026-07-01T13:57:08Z</time>
					</trkpt>
					<trkpt lat="50.322240" lon="4.329960">
						<ele>180</ele>
						<time>2026-07-01T13:57:22Z</time>
					</trkpt>
					<trkpt lat="50.322140" lon="4.330000">
						<ele>180</ele>
						<time>2026-07-01T13:57:36Z</time>
					</trkpt>
					<trkpt lat="50.322050" lon="4.330030">
						<ele>180</ele>
						<time>2026-07-01T13:57:48Z</time>
					</trkpt>
					<trkpt lat="50.321960" lon="4.330040">
						<ele>179</ele>
						<time>2026-07-01T13:58:00Z</time>
					</trkpt>
					<trkpt lat="50.321680" lon="4.330010">
						<ele>179</ele>
						<time>2026-07-01T13:58:37Z</time>
					</trkpt>
					<trkpt lat="50.320300" lon="4.329820">
						<ele>180</ele>
						<time>2026-07-01T14:01:42Z</time>
					</trkpt>
					<trkpt lat="50.320140" lon="4.329810">
						<ele>179</ele>
						<time>2026-07-01T14:02:04Z</time>
					</trkpt>
					<trkpt lat="50.320100" lon="4.329800">
						<ele>179</ele>
						<time>2026-07-01T14:02:09Z</time>
					</trkpt>
					<trkpt lat="50.320130" lon="4.330050">
						<ele>180</ele>
						<time>2026-07-01T14:02:31Z</time>
					</trkpt>
					<trkpt lat="50.320160" lon="4.330180">
						<ele>180</ele>
						<time>2026-07-01T14:02:42Z</time>
					</trkpt>
					<trkpt lat="50.320200" lon="4.330310">
						<ele>181</ele>
						<time>2026-07-01T14:02:55Z</time>
					</trkpt>
					<trkpt lat="50.320710" lon="4.331350">
						<ele>182</ele>
						<time>2026-07-01T14:04:46Z</time>
					</trkpt>
					<trkpt lat="50.321180" lon="4.332210">
						<ele>184</ele>
						<time>2026-07-01T14:06:23Z</time>
					</trkpt>
					<trkpt lat="50.321290" lon="4.332490">
						<ele>184</ele>
						<time>2026-07-01T14:06:51Z</time>
					</trkpt>
					<trkpt lat="50.321380" lon="4.332730">
						<ele>185</ele>
						<time>2026-07-01T14:07:15Z</time>
					</trkpt>
					<trkpt lat="50.321570" lon="4.333330">
						<ele>187</ele>
						<time>2026-07-01T14:08:12Z</time>
					</trkpt>
					<trkpt lat="50.321660" lon="4.333570">
						<ele>187</ele>
						<time>2026-07-01T14:08:35Z</time>
					</trkpt>
					<trkpt lat="50.321770" lon="4.333860">
						<ele>188</ele>
						<time>2026-07-01T14:09:04Z</time>
					</trkpt>
					<trkpt lat="50.321920" lon="4.334210">
						<ele>188</ele>
						<time>2026-07-01T14:09:40Z</time>
					</trkpt>
					<trkpt lat="50.322340" lon="4.335140">
						<ele>188</ele>
						<time>2026-07-01T14:11:17Z</time>
					</trkpt>
					<trkpt lat="50.322710" lon="4.336050">
						<ele>191</ele>
						<time>2026-07-01T14:12:49Z</time>
					</trkpt>
					<trkpt lat="50.322810" lon="4.336260">
						<ele>190</ele>
						<time>2026-07-01T14:13:11Z</time>
					</trkpt>
					<trkpt lat="50.322940" lon="4.336490">
						<ele>191</ele>
						<time>2026-07-01T14:13:38Z</time>
					</trkpt>
					<trkpt lat="50.323160" lon="4.336860">
						<ele>191</ele>
						<time>2026-07-01T14:14:21Z</time>
					</trkpt>
					<trkpt lat="50.323260" lon="4.337010">
						<ele>191</ele>
						<time>2026-07-01T14:14:39Z</time>
					</trkpt>
					<trkpt lat="50.323330" lon="4.337070">
						<ele>191</ele>
						<time>2026-07-01T14:14:50Z</time>
					</trkpt>
					<trkpt lat="50.323430" lon="4.337130">
						<ele>191</ele>
						<time>2026-07-01T14:15:04Z</time>
					</trkpt>
					<trkpt lat="50.323670" lon="4.337250">
						<ele>191</ele>
						<time>2026-07-01T14:15:38Z</time>
					</trkpt>
					<trkpt lat="50.324680" lon="4.337760">
						<ele>190</ele>
						<time>2026-07-01T14:17:59Z</time>
					</trkpt>
					<trkpt lat="50.325120" lon="4.337910">
						<ele>190</ele>
						<time>2026-07-01T14:18:59Z</time>
					</trkpt>
					<trkpt lat="50.326050" lon="4.338200">
						<ele>192</ele>
						<time>2026-07-01T14:21:06Z</time>
					</trkpt>
					<trkpt lat="50.326420" lon="4.338330">
						<ele>192</ele>
						<time>2026-07-01T14:21:57Z</time>
					</trkpt>
					<trkpt lat="50.326730" lon="4.338460">
						<ele>193</ele>
						<time>2026-07-01T14:22:39Z</time>
					</trkpt>
					<trkpt lat="50.327170" lon="4.338670">
						<ele>193</ele>
						<time>2026-07-01T14:23:41Z</time>
					</trkpt>
					<trkpt lat="50.327410" lon="4.338800">
						<ele>193</ele>
						<time>2026-07-01T14:24:15Z</time>
					</trkpt>
					<trkpt lat="50.328340" lon="4.339390">
						<ele>193</ele>
						<time>2026-07-01T14:26:29Z</time>
					</trkpt>
					<trkpt lat="50.329080" lon="4.339800">
						<ele>193</ele>
						<time>2026-07-01T14:28:13Z</time>
					</trkpt>
					<trkpt lat="50.329260" lon="4.339880">
						<ele>194</ele>
						<time>2026-07-01T14:28:38Z</time>
					</trkpt>
					<trkpt lat="50.329470" lon="4.340010">
						<ele>195</ele>
						<time>2026-07-01T14:29:08Z</time>
					</trkpt>
					<trkpt lat="50.329680" lon="4.340170">
						<ele>195</ele>
						<time>2026-07-01T14:29:40Z</time>
					</trkpt>
					<trkpt lat="50.330070" lon="4.340410">
						<ele>196</ele>
						<time>2026-07-01T14:30:35Z</time>
					</trkpt>
					<trkpt lat="50.330450" lon="4.340680">
						<ele>197</ele>
						<time>2026-07-01T14:31:31Z</time>
					</trkpt>
					<trkpt lat="50.330670" lon="4.340810">
						<ele>197</ele>
						<time>2026-07-01T14:32:03Z</time>
					</trkpt>
					<trkpt lat="50.331460" lon="4.341340">
						<ele>197</ele>
						<time>2026-07-01T14:33:57Z</time>
					</trkpt>
					<trkpt lat="50.332020" lon="4.341760">
						<ele>197</ele>
						<time>2026-07-01T14:35:20Z</time>
					</trkpt>
					<trkpt lat="50.332050" lon="4.341780">
						<ele>197</ele>
						<time>2026-07-01T14:35:24Z</time>
					</trkpt>
					<trkpt lat="50.331970" lon="4.342250">
						<ele>198</ele>
						<time>2026-07-01T14:36:06Z</time>
					</trkpt>
					<trkpt lat="50.331730" lon="4.343840">
						<ele>194</ele>
						<time>2026-07-01T14:38:25Z</time>
					</trkpt>
					<trkpt lat="50.332330" lon="4.344250">
						<ele>195</ele>
						<time>2026-07-01T14:39:52Z</time>
					</trkpt>
					<trkpt lat="50.332420" lon="4.344320">
						<ele>196</ele>
						<time>2026-07-01T14:40:06Z</time>
					</trkpt>
					<trkpt lat="50.332520" lon="4.344430">
						<ele>196</ele>
						<time>2026-07-01T14:40:22Z</time>
					</trkpt>
					<trkpt lat="50.332870" lon="4.344840">
						<ele>196</ele>
						<time>2026-07-01T14:41:20Z</time>
					</trkpt>
					<trkpt lat="50.333410" lon="4.345560">
						<ele>195</ele>
						<time>2026-07-01T14:42:55Z</time>
					</trkpt>
					<trkpt lat="50.334300" lon="4.346530">
						<ele>198</ele>
						<time>2026-07-01T14:45:20Z</time>
					</trkpt>
					<trkpt lat="50.334710" lon="4.347170">
						<ele>197</ele>
						<time>2026-07-01T14:46:37Z</time>
					</trkpt>
					<trkpt lat="50.334770" lon="4.347200">
						<ele>197</ele>
						<time>2026-07-01T14:46:45Z</time>
					</trkpt>
					<trkpt lat="50.336930" lon="4.348660">
						<ele>202</ele>
						<time>2026-07-01T14:51:59Z</time>
					</trkpt>
					<trkpt lat="50.337140" lon="4.348780">
						<ele>202</ele>
						<time>2026-07-01T14:52:29Z</time>
					</trkpt>
					<trkpt lat="50.337500" lon="4.348930">
						<ele>203</ele>
						<time>2026-07-01T14:53:19Z</time>
					</trkpt>
					<trkpt lat="50.337990" lon="4.349120">
						<ele>204</ele>
						<time>2026-07-01T14:54:26Z</time>
					</trkpt>
					<trkpt lat="50.338470" lon="4.349270">
						<ele>204</ele>
						<time>2026-07-01T14:55:31Z</time>
					</trkpt>
					<trkpt lat="50.338440" lon="4.349500">
						<ele>203</ele>
						<time>2026-07-01T14:55:51Z</time>
					</trkpt>
					<trkpt lat="50.338470" lon="4.349860">
						<ele>203</ele>
						<time>2026-07-01T14:56:22Z</time>
					</trkpt>
					<trkpt lat="50.338530" lon="4.350120">
						<ele>203</ele>
						<time>2026-07-01T14:56:46Z</time>
					</trkpt>
					<trkpt lat="50.338550" lon="4.350260">
						<ele>203</ele>
						<time>2026-07-01T14:56:58Z</time>
					</trkpt>
					<trkpt lat="50.338530" lon="4.350480">
						<ele>202</ele>
						<time>2026-07-01T14:57:17Z</time>
					</trkpt>
					<trkpt lat="50.338200" lon="4.351780">
						<ele>199</ele>
						<time>2026-07-01T14:59:16Z</time>
					</trkpt>
					<trkpt lat="50.338060" lon="4.352320">
						<ele>197</ele>
						<time>2026-07-01T15:00:06Z</time>
					</trkpt>
					<trkpt lat="50.338080" lon="4.352490">
						<ele>196</ele>
						<time>2026-07-01T15:00:21Z</time>
					</trkpt>
					<trkpt lat="50.338130" lon="4.352530">
						<ele>196</ele>
						<time>2026-07-01T15:00:28Z</time>
					</trkpt>
					<trkpt lat="50.338280" lon="4.352550">
						<ele>197</ele>
						<time>2026-07-01T15:00:48Z</time>
					</trkpt>
					<trkpt lat="50.338460" lon="4.352550">
						<ele>197</ele>
						<time>2026-07-01T15:01:12Z</time>
					</trkpt>
					<trkpt lat="50.339110" lon="4.352680">
						<ele>199</ele>
						<time>2026-07-01T15:02:40Z</time>
					</trkpt>
					<trkpt lat="50.339710" lon="4.352910">
						<ele>200</ele>
						<time>2026-07-01T15:04:02Z</time>
					</trkpt>
					<trkpt lat="50.340080" lon="4.353110">
						<ele>201</ele>
						<time>2026-07-01T15:04:54Z</time>
					</trkpt>
					<trkpt lat="50.341200" lon="4.353760">
						<ele>204</ele>
						<time>2026-07-01T15:07:34Z</time>
					</trkpt>
					<trkpt lat="50.341260" lon="4.353820">
						<ele>205</ele>
						<time>2026-07-01T15:07:43Z</time>
					</trkpt>
					<trkpt lat="50.341670" lon="4.354340">
						<ele>207</ele>
						<time>2026-07-01T15:08:54Z</time>
					</trkpt>
					<trkpt lat="50.341870" lon="4.354570">
						<ele>208</ele>
						<time>2026-07-01T15:09:27Z</time>
					</trkpt>
					<trkpt lat="50.342590" lon="4.355220">
						<ele>208</ele>
						<time>2026-07-01T15:11:18Z</time>
					</trkpt>
					<trkpt lat="50.342940" lon="4.355550">
						<ele>208</ele>
						<time>2026-07-01T15:12:12Z</time>
					</trkpt>
					<trkpt lat="50.343050" lon="4.355770">
						<ele>208</ele>
						<time>2026-07-01T15:12:36Z</time>
					</trkpt>
					<trkpt lat="50.343450" lon="4.356670">
						<ele>207</ele>
						<time>2026-07-01T15:14:09Z</time>
					</trkpt>
					<trkpt lat="50.343690" lon="4.357240">
						<ele>205</ele>
						<time>2026-07-01T15:15:07Z</time>
					</trkpt>
					<trkpt lat="50.343780" lon="4.357500">
						<ele>204</ele>
						<time>2026-07-01T15:15:33Z</time>
					</trkpt>
					<trkpt lat="50.344530" lon="4.360020">
						<ele>203</ele>
						<time>2026-07-01T15:19:29Z</time>
					</trkpt>
					<trkpt lat="50.344580" lon="4.360140">
						<ele>203</ele>
						<time>2026-07-01T15:19:42Z</time>
					</trkpt>
					<trkpt lat="50.344950" lon="4.360650">
						<ele>204</ele>
						<time>2026-07-01T15:20:47Z</time>
					</trkpt>
					<trkpt lat="50.344980" lon="4.360620">
						<ele>204</ele>
						<time>2026-07-01T15:20:52Z</time>
					</trkpt>
					<trkpt lat="50.345770" lon="4.361410">
						<ele>206</ele>
						<time>2026-07-01T15:22:57Z</time>
					</trkpt>
					<trkpt lat="50.345870" lon="4.361530">
						<ele>206</ele>
						<time>2026-07-01T15:23:14Z</time>
					</trkpt>
					<trkpt lat="50.345970" lon="4.361700">
						<ele>206</ele>
						<time>2026-07-01T15:23:34Z</time>
					</trkpt>
					<trkpt lat="50.346070" lon="4.361940">
						<ele>206</ele>
						<time>2026-07-01T15:23:58Z</time>
					</trkpt>
					<trkpt lat="50.346080" lon="4.361970">
						<ele>206</ele>
						<time>2026-07-01T15:24:01Z</time>
					</trkpt>
					<trkpt lat="50.346130" lon="4.361890">
						<ele>207</ele>
						<time>2026-07-01T15:24:11Z</time>
					</trkpt>
					<trkpt lat="50.346320" lon="4.361480">
						<ele>207</ele>
						<time>2026-07-01T15:24:54Z</time>
					</trkpt>
					<trkpt lat="50.346450" lon="4.361190">
						<ele>207</ele>
						<time>2026-07-01T15:25:24Z</time>
					</trkpt>
					<trkpt lat="50.346870" lon="4.360350">
						<ele>208</ele>
						<time>2026-07-01T15:26:55Z</time>
					</trkpt>
					<trkpt lat="50.346860" lon="4.360340">
						<ele>208</ele>
						<time>2026-07-01T15:26:56Z</time>
					</trkpt>
					<trkpt lat="50.346870" lon="4.360350">
						<ele>208</ele>
						<time>2026-07-01T15:26:58Z</time>
					</trkpt>
					<trkpt lat="50.347360" lon="4.361020">
						<ele>208</ele>
						<time>2026-07-01T15:28:25Z</time>
					</trkpt>
					<trkpt lat="50.347780" lon="4.361630">
						<ele>208</ele>
						<time>2026-07-01T15:29:41Z</time>
					</trkpt>
					<trkpt lat="50.347920" lon="4.361400">
						<ele>208</ele>
						<time>2026-07-01T15:30:08Z</time>
					</trkpt>
					<trkpt lat="50.350870" lon="4.356410">
						<ele>205</ele>
						<time>2026-07-01T15:39:47Z</time>
					</trkpt>
					<trkpt lat="50.351630" lon="4.355060">
						<ele>205</ele>
						<time>2026-07-01T15:42:21Z</time>
					</trkpt>
					<trkpt lat="50.351630" lon="4.355060">
						<ele>205</ele>
						<time>2026-07-01T15:42:21Z</time>
					</trkpt>
					<trkpt lat="50.351640" lon="4.355050">
						<ele>205</ele>
						<time>2026-07-01T15:42:22Z</time>
					</trkpt>
					<trkpt lat="50.351640" lon="4.355000">
						<ele>205</ele>
						<time>2026-07-01T15:42:27Z</time>
					</trkpt>
					<trkpt lat="50.351640" lon="4.355050">
						<ele>205</ele>
						<time>2026-07-01T15:42:31Z</time>
					</trkpt>
					<trkpt lat="50.351800" lon="4.354840">
						<ele>205</ele>
						<time>2026-07-01T15:42:59Z</time>
					</trkpt>
					<trkpt lat="50.352650" lon="4.353410">
						<ele>205</ele>
						<time>2026-07-01T15:45:45Z</time>
					</trkpt>
					<trkpt lat="50.352910" lon="4.352950">
						<ele>203</ele>
						<time>2026-07-01T15:46:37Z</time>
					</trkpt>
					<trkpt lat="50.353200" lon="4.352450">
						<ele>202</ele>
						<time>2026-07-01T15:47:35Z</time>
					</trkpt>
					<trkpt lat="50.353580" lon="4.352280">
						<ele>200</ele>
						<time>2026-07-01T15:48:28Z</time>
					</trkpt>
					<trkpt lat="50.354190" lon="4.352540">
						<ele>196</ele>
						<time>2026-07-01T15:49:52Z</time>
					</trkpt>
					<trkpt lat="50.354640" lon="4.351920">
						<ele>188</ele>
						<time>2026-07-01T15:51:12Z</time>
					</trkpt>
					<trkpt lat="50.355150" lon="4.351550">
						<ele>179</ele>
						<time>2026-07-01T15:52:27Z</time>
					</trkpt>
					<trkpt lat="50.355380" lon="4.351280">
						<ele>175</ele>
						<time>2026-07-01T15:53:05Z</time>
					</trkpt>
					<trkpt lat="50.355810" lon="4.350430">
						<ele>168</ele>
						<time>2026-07-01T15:54:38Z</time>
					</trkpt>
					<trkpt lat="50.355990" lon="4.350240">
						<ele>166</ele>
						<time>2026-07-01T15:55:07Z</time>
					</trkpt>
					<trkpt lat="50.356180" lon="4.350210">
						<ele>164</ele>
						<time>2026-07-01T15:55:32Z</time>
					</trkpt>
					<trkpt lat="50.356440" lon="4.350290">
						<ele>161</ele>
						<time>2026-07-01T15:56:07Z</time>
					</trkpt>
					<trkpt lat="50.356510" lon="4.350350">
						<ele>160</ele>
						<time>2026-07-01T15:56:18Z</time>
					</trkpt>
					<trkpt lat="50.356510" lon="4.350350">
						<ele>160</ele>
						<time>2026-07-01T15:56:18Z</time>
					</trkpt>
					<trkpt lat="50.356600" lon="4.350430">
						<ele>159</ele>
						<time>2026-07-01T15:56:32Z</time>
					</trkpt>
					<trkpt lat="50.357020" lon="4.349100">
						<ele>157</ele>
						<time>2026-07-01T15:58:38Z</time>
					</trkpt>
					<trkpt lat="50.357400" lon="4.347980">
						<ele>149</ele>
						<time>2026-07-01T16:00:26Z</time>
					</trkpt>
					<trkpt lat="50.357300" lon="4.347870">
						<ele>151</ele>
						<time>2026-07-01T16:00:43Z</time>
					</trkpt>
					<trkpt lat="50.357300" lon="4.347870">
						<ele>151</ele>
						<time>2026-07-01T16:00:43Z</time>
					</trkpt>
					<trkpt lat="50.357290" lon="4.347760">
						<ele>151</ele>
						<time>2026-07-01T16:00:52Z</time>
					</trkpt>
					<trkpt lat="50.357300" lon="4.347730">
						<ele>150</ele>
						<time>2026-07-01T16:00:55Z</time>
					</trkpt>
					<trkpt lat="50.357300" lon="4.347660">
						<ele>150</ele>
						<time>2026-07-01T16:01:01Z</time>
					</trkpt>
					<trkpt lat="50.357270" lon="4.347350">
						<ele>149</ele>
						<time>2026-07-01T16:01:28Z</time>
					</trkpt>
					<trkpt lat="50.356940" lon="4.345520">
						<ele>146</ele>
						<time>2026-07-01T16:04:09Z</time>
					</trkpt>
					<trkpt lat="50.356510" lon="4.343890">
						<ele>142</ele>
						<time>2026-07-01T16:06:40Z</time>
					</trkpt>
					<trkpt lat="50.356530" lon="4.343890">
						<ele>142</ele>
						<time>2026-07-01T16:06:42Z</time>
					</trkpt>
					<trkpt lat="50.356840" lon="4.343870">
						<ele>139</ele>
						<time>2026-07-01T16:07:24Z</time>
					</trkpt>
					<trkpt lat="50.357050" lon="4.343900">
						<ele>137</ele>
						<time>2026-07-01T16:07:52Z</time>
					</trkpt>
					<trkpt lat="50.357360" lon="4.343990">
						<ele>135</ele>
						<time>2026-07-01T16:08:34Z</time>
					</trkpt>
					<trkpt lat="50.357430" lon="4.343960">
						<ele>134</ele>
						<time>2026-07-01T16:08:44Z</time>
					</trkpt>
					<trkpt lat="50.357510" lon="4.343870">
						<ele>133</ele>
						<time>2026-07-01T16:08:57Z</time>
					</trkpt>
					<trkpt lat="50.357730" lon="4.343530">
						<ele>130</ele>
						<time>2026-07-01T16:09:38Z</time>
					</trkpt>
					<trkpt lat="50.358070" lon="4.343070">
						<ele>128</ele>
						<time>2026-07-01T16:10:38Z</time>
					</trkpt>
					<trkpt lat="50.358320" lon="4.342800">
						<ele>128</ele>
						<time>2026-07-01T16:11:18Z</time>
					</trkpt>
					<trkpt lat="50.358560" lon="4.342570">
						<ele>128</ele>
						<time>2026-07-01T16:11:56Z</time>
					</trkpt>
					<trkpt lat="50.359790" lon="4.341620">
						<ele>128</ele>
						<time>2026-07-01T16:14:59Z</time>
					</trkpt>
					<trkpt lat="50.360070" lon="4.341340">
						<ele>129</ele>
						<time>2026-07-01T16:15:43Z</time>
					</trkpt>
					<trkpt lat="50.360170" lon="4.341220">
						<ele>129</ele>
						<time>2026-07-01T16:16:00Z</time>
					</trkpt>
					<trkpt lat="50.360390" lon="4.340930">
						<ele>130</ele>
						<time>2026-07-01T16:16:38Z</time>
					</trkpt>
					<trkpt lat="50.360820" lon="4.340320">
						<ele>131</ele>
						<time>2026-07-01T16:17:56Z</time>
					</trkpt>
					<trkpt lat="50.360930" lon="4.340150">
						<ele>132</ele>
						<time>2026-07-01T16:18:16Z</time>
					</trkpt>
					<trkpt lat="50.360980" lon="4.340070">
						<ele>132</ele>
						<time>2026-07-01T16:18:26Z</time>
					</trkpt>
					<trkpt lat="50.360950" lon="4.340020">
						<ele>132</ele>
						<time>2026-07-01T16:18:32Z</time>
					</trkpt>
					<trkpt lat="50.360940" lon="4.339940">
						<ele>132</ele>
						<time>2026-07-01T16:18:39Z</time>
					</trkpt>
					<trkpt lat="50.360930" lon="4.339830">
						<ele>132</ele>
						<time>2026-07-01T16:18:48Z</time>
					</trkpt>
					<trkpt lat="50.360950" lon="4.339400">
						<ele>134</ele>
						<time>2026-07-01T16:19:25Z</time>
					</trkpt>
					<trkpt lat="50.360920" lon="4.339060">
						<ele>135</ele>
						<time>2026-07-01T16:19:54Z</time>
					</trkpt>
					<trkpt lat="50.360660" lon="4.337420">
						<ele>136</ele>
						<time>2026-07-01T16:22:18Z</time>
					</trkpt>
					<trkpt lat="50.360530" lon="4.336650">
						<ele>134</ele>
						<time>2026-07-01T16:23:26Z</time>
					</trkpt>
					<trkpt lat="50.360510" lon="4.336440">
						<ele>134</ele>
						<time>2026-07-01T16:23:44Z</time>
					</trkpt>
					<trkpt lat="50.360510" lon="4.336340">
						<ele>133</ele>
						<time>2026-07-01T16:23:52Z</time>
					</trkpt>
					<trkpt lat="50.360510" lon="4.336260">
						<ele>133</ele>
						<time>2026-07-01T16:23:59Z</time>
					</trkpt>
					<trkpt lat="50.360690" lon="4.336020">
						<ele>133</ele>
						<time>2026-07-01T16:24:31Z</time>
					</trkpt>
					<trkpt lat="50.361010" lon="4.335640">
						<ele>133</ele>
						<time>2026-07-01T16:25:24Z</time>
					</trkpt>
					<trkpt lat="50.360400" lon="4.335670">
						<ele>130</ele>
						<time>2026-07-01T16:26:46Z</time>
					</trkpt>
					<trkpt lat="50.360330" lon="4.335610">
						<ele>129</ele>
						<time>2026-07-01T16:26:56Z</time>
					</trkpt>
					<trkpt lat="50.360130" lon="4.335240">
						<ele>125</ele>
						<time>2026-07-01T16:27:38Z</time>
					</trkpt>
					<trkpt lat="50.359780" lon="4.334550">
						<ele>121</ele>
						<time>2026-07-01T16:28:53Z</time>
					</trkpt>
					<trkpt lat="50.359600" lon="4.334170">
						<ele>120</ele>
						<time>2026-07-01T16:29:33Z</time>
					</trkpt>
					<trkpt lat="50.359250" lon="4.333460">
						<ele>122</ele>
						<time>2026-07-01T16:30:49Z</time>
					</trkpt>
					<trkpt lat="50.359140" lon="4.333230">
						<ele>124</ele>
						<time>2026-07-01T16:31:14Z</time>
					</trkpt>
					<trkpt lat="50.358990" lon="4.332870">
						<ele>127</ele>
						<time>2026-07-01T16:31:51Z</time>
					</trkpt>
					<trkpt lat="50.358590" lon="4.331980">
						<ele>140</ele>
						<time>2026-07-01T16:33:23Z</time>
					</trkpt>
					<trkpt lat="50.358530" lon="4.331790">
						<ele>144</ele>
						<time>2026-07-01T16:33:41Z</time>
					</trkpt>
					<trkpt lat="50.358450" lon="4.331510">
						<ele>149</ele>
						<time>2026-07-01T16:34:07Z</time>
					</trkpt>
					<trkpt lat="50.358450" lon="4.331140">
						<ele>154</ele>
						<time>2026-07-01T16:34:39Z</time>
					</trkpt>
					<trkpt lat="50.358400" lon="4.330780">
						<ele>160</ele>
						<time>2026-07-01T16:35:10Z</time>
					</trkpt>
					<trkpt lat="50.358300" lon="4.330570">
						<ele>164</ele>
						<time>2026-07-01T16:35:33Z</time>
					</trkpt>
					<trkpt lat="50.358110" lon="4.330400">
						<ele>169</ele>
						<time>2026-07-01T16:36:02Z</time>
					</trkpt>
					<trkpt lat="50.358000" lon="4.330330">
						<ele>171</ele>
						<time>2026-07-01T16:36:18Z</time>
					</trkpt>
					<trkpt lat="50.357830" lon="4.330350">
						<ele>174</ele>
						<time>2026-07-01T16:36:40Z</time>
					</trkpt>
					<trkpt lat="50.357630" lon="4.330430">
						<ele>177</ele>
						<time>2026-07-01T16:37:08Z</time>
					</trkpt>
					<trkpt lat="50.357350" lon="4.330600">
						<ele>182</ele>
						<time>2026-07-01T16:37:48Z</time>
					</trkpt>
					<trkpt lat="50.357210" lon="4.330440">
						<ele>183</ele>
						<time>2026-07-01T16:38:11Z</time>
					</trkpt>
					<trkpt lat="50.357170" lon="4.329770">
						<ele>183</ele>
						<time>2026-07-01T16:39:08Z</time>
					</trkpt>
					<trkpt lat="50.357020" lon="4.329290">
						<ele>186</ele>
						<time>2026-07-01T16:39:54Z</time>
					</trkpt>
					<trkpt lat="50.356690" lon="4.328740">
						<ele>188</ele>
						<time>2026-07-01T16:40:58Z</time>
					</trkpt>
					<trkpt lat="50.356640" lon="4.328530">
						<ele>189</ele>
						<time>2026-07-01T16:41:17Z</time>
					</trkpt>
					<trkpt lat="50.356670" lon="4.328270">
						<ele>189</ele>
						<time>2026-07-01T16:41:40Z</time>
					</trkpt>
					<trkpt lat="50.356720" lon="4.327690">
						<ele>190</ele>
						<time>2026-07-01T16:42:30Z</time>
					</trkpt>
					<trkpt lat="50.356840" lon="4.327520">
						<ele>190</ele>
						<time>2026-07-01T16:42:51Z</time>
					</trkpt>
					<trkpt lat="50.356870" lon="4.327490">
						<ele>190</ele>
						<time>2026-07-01T16:42:56Z</time>
					</trkpt>
					<trkpt lat="50.356840" lon="4.327520">
						<ele>190</ele>
						<time>2026-07-01T16:43:01Z</time>
					</trkpt>
					<trkpt lat="50.356600" lon="4.327080">
						<ele>190</ele>
						<time>2026-07-01T16:43:50Z</time>
					</trkpt>
					<trkpt lat="50.356460" lon="4.326890">
						<ele>190</ele>
						<time>2026-07-01T16:44:15Z</time>
					</trkpt>
					<trkpt lat="50.356350" lon="4.326760">
						<ele>190</ele>
						<time>2026-07-01T16:44:33Z</time>
					</trkpt>
					<trkpt lat="50.356200" lon="4.326620">
						<ele>190</ele>
						<time>2026-07-01T16:44:56Z</time>
					</trkpt>
					<trkpt lat="50.354280" lon="4.324850">
						<ele>193</ele>
						<time>2026-07-01T16:49:54Z</time>
					</trkpt>
					<trkpt lat="50.354060" lon="4.324620">
						<ele>194</ele>
						<time>2026-07-01T16:50:29Z</time>
					</trkpt>
					<trkpt lat="50.353910" lon="4.324400">
						<ele>194</ele>
						<time>2026-07-01T16:50:56Z</time>
					</trkpt>
					<trkpt lat="50.353750" lon="4.324260">
						<ele>195</ele>
						<time>2026-07-01T16:51:21Z</time>
					</trkpt>
					<trkpt lat="50.353700" lon="4.324220">
						<ele>195</ele>
						<time>2026-07-01T16:51:28Z</time>
					</trkpt>
					<trkpt lat="50.352950" lon="4.323910">
						<ele>196</ele>
						<time>2026-07-01T16:53:12Z</time>
					</trkpt>
					<trkpt lat="50.352860" lon="4.323850">
						<ele>196</ele>
						<time>2026-07-01T16:53:25Z</time>
					</trkpt>
					<trkpt lat="50.352790" lon="4.323780">
						<ele>196</ele>
						<time>2026-07-01T16:53:36Z</time>
					</trkpt>
					<trkpt lat="50.352730" lon="4.323700">
						<ele>196</ele>
						<time>2026-07-01T16:53:46Z</time>
					</trkpt>
					<trkpt lat="50.352650" lon="4.323520">
						<ele>196</ele>
						<time>2026-07-01T16:54:05Z</time>
					</trkpt>
					<trkpt lat="50.352440" lon="4.323230">
						<ele>196</ele>
						<time>2026-07-01T16:54:42Z</time>
					</trkpt>
					<trkpt lat="50.352280" lon="4.323050">
						<ele>196</ele>
						<time>2026-07-01T16:55:09Z</time>
					</trkpt>
					<trkpt lat="50.352040" lon="4.322770">
						<ele>196</ele>
						<time>2026-07-01T16:55:49Z</time>
					</trkpt>
					<trkpt lat="50.351990" lon="4.322690">
						<ele>196</ele>
						<time>2026-07-01T16:55:58Z</time>
					</trkpt>
					<trkpt lat="50.351960" lon="4.322580">
						<ele>196</ele>
						<time>2026-07-01T16:56:08Z</time>
					</trkpt>
					<trkpt lat="50.351860" lon="4.322120">
						<ele>196</ele>
						<time>2026-07-01T16:56:50Z</time>
					</trkpt>
					<trkpt lat="50.351810" lon="4.322030">
						<ele>196</ele>
						<time>2026-07-01T16:57:00Z</time>
					</trkpt>
					<trkpt lat="50.351750" lon="4.321940">
						<ele>196</ele>
						<time>2026-07-01T16:57:11Z</time>
					</trkpt>
					<trkpt lat="50.351420" lon="4.321560">
						<ele>197</ele>
						<time>2026-07-01T16:58:06Z</time>
					</trkpt>
					<trkpt lat="50.351010" lon="4.321240">
						<ele>197</ele>
						<time>2026-07-01T16:59:07Z</time>
					</trkpt>
					<trkpt lat="50.350900" lon="4.321130">
						<ele>198</ele>
						<time>2026-07-01T16:59:24Z</time>
					</trkpt>
					<trkpt lat="50.350790" lon="4.321150">
						<ele>198</ele>
						<time>2026-07-01T16:59:39Z</time>
					</trkpt>
					<trkpt lat="50.350410" lon="4.321160">
						<ele>198</ele>
						<time>2026-07-01T17:00:30Z</time>
					</trkpt>
					<trkpt lat="50.350020" lon="4.321220">
						<ele>198</ele>
						<time>2026-07-01T17:01:22Z</time>
					</trkpt>
					<trkpt lat="50.349380" lon="4.321240">
						<ele>199</ele>
						<time>2026-07-01T17:02:47Z</time>
					</trkpt>
					<trkpt lat="50.349230" lon="4.321260">
						<ele>199</ele>
						<time>2026-07-01T17:03:07Z</time>
					</trkpt>
					<trkpt lat="50.348890" lon="4.321280">
						<ele>200</ele>
						<time>2026-07-01T17:03:53Z</time>
					</trkpt>
					<trkpt lat="50.348760" lon="4.321270">
						<ele>200</ele>
						<time>2026-07-01T17:04:10Z</time>
					</trkpt>
					<trkpt lat="50.348710" lon="4.321240">
						<ele>200</ele>
						<time>2026-07-01T17:04:17Z</time>
					</trkpt>
					<trkpt lat="50.348620" lon="4.321150">
						<ele>200</ele>
						<time>2026-07-01T17:04:32Z</time>
					</trkpt>
					<trkpt lat="50.348450" lon="4.320900">
						<ele>200</ele>
						<time>2026-07-01T17:05:03Z</time>
					</trkpt>
					<trkpt lat="50.348300" lon="4.320790">
						<ele>200</ele>
						<time>2026-07-01T17:05:25Z</time>
					</trkpt>
					<trkpt lat="50.348160" lon="4.320730">
						<ele>200</ele>
						<time>2026-07-01T17:05:44Z</time>
					</trkpt>
					<trkpt lat="50.348070" lon="4.320700">
						<ele>200</ele>
						<time>2026-07-01T17:05:56Z</time>
					</trkpt>
					<trkpt lat="50.347900" lon="4.320690">
						<ele>201</ele>
						<time>2026-07-01T17:06:19Z</time>
					</trkpt>
					<trkpt lat="50.347750" lon="4.320690">
						<ele>201</ele>
						<time>2026-07-01T17:06:39Z</time>
					</trkpt>
					<trkpt lat="50.347660" lon="4.320710">
						<ele>201</ele>
						<time>2026-07-01T17:06:51Z</time>
					</trkpt>
					<trkpt lat="50.347530" lon="4.320750">
						<ele>202</ele>
						<time>2026-07-01T17:07:09Z</time>
					</trkpt>
					<trkpt lat="50.347480" lon="4.320800">
						<ele>202</ele>
						<time>2026-07-01T17:07:17Z</time>
					</trkpt>
					<trkpt lat="50.347270" lon="4.321010">
						<ele>203</ele>
						<time>2026-07-01T17:07:50Z</time>
					</trkpt>
					<trkpt lat="50.347160" lon="4.321080">
						<ele>203</ele>
						<time>2026-07-01T17:08:06Z</time>
					</trkpt>
					<trkpt lat="50.347100" lon="4.321100">
						<ele>203</ele>
						<time>2026-07-01T17:08:14Z</time>
					</trkpt>
					<trkpt lat="50.346620" lon="4.321160">
						<ele>205</ele>
						<time>2026-07-01T17:09:18Z</time>
					</trkpt>
					<trkpt lat="50.346290" lon="4.321230">
						<ele>205</ele>
						<time>2026-07-01T17:10:03Z</time>
					</trkpt>
					<trkpt lat="50.346190" lon="4.321240">
						<ele>204</ele>
						<time>2026-07-01T17:10:16Z</time>
					</trkpt>
					<trkpt lat="50.346060" lon="4.321230">
						<ele>204</ele>
						<time>2026-07-01T17:10:34Z</time>
					</trkpt>
					<trkpt lat="50.345970" lon="4.321220">
						<ele>204</ele>
						<time>2026-07-01T17:10:46Z</time>
					</trkpt>
					<trkpt lat="50.345820" lon="4.321170">
						<ele>204</ele>
						<time>2026-07-01T17:11:06Z</time>
					</trkpt>
					<trkpt lat="50.345540" lon="4.321070">
						<ele>204</ele>
						<time>2026-07-01T17:11:44Z</time>
					</trkpt>
					<trkpt lat="50.345430" lon="4.321050">
						<ele>204</ele>
						<time>2026-07-01T17:11:59Z</time>
					</trkpt>
					<trkpt lat="50.345290" lon="4.321050">
						<ele>205</ele>
						<time>2026-07-01T17:12:18Z</time>
					</trkpt>
					<trkpt lat="50.345120" lon="4.321070">
						<ele>205</ele>
						<time>2026-07-01T17:12:41Z</time>
					</trkpt>
					<trkpt lat="50.344550" lon="4.321200">
						<ele>205</ele>
						<time>2026-07-01T17:13:58Z</time>
					</trkpt>
					<trkpt lat="50.344470" lon="4.321210">
						<ele>205</ele>
						<time>2026-07-01T17:14:08Z</time>
					</trkpt>
					<trkpt lat="50.344380" lon="4.321200">
						<ele>205</ele>
						<time>2026-07-01T17:14:20Z</time>
					</trkpt>
					<trkpt lat="50.344310" lon="4.321180">
						<ele>205</ele>
						<time>2026-07-01T17:14:30Z</time>
					</trkpt>
					<trkpt lat="50.344210" lon="4.321140">
						<ele>205</ele>
						<time>2026-07-01T17:14:44Z</time>
					</trkpt>
					<trkpt lat="50.343700" lon="4.320830">
						<ele>204</ele>
						<time>2026-07-01T17:15:57Z</time>
					</trkpt>
					<trkpt lat="50.342970" lon="4.320530">
						<ele>204</ele>
						<time>2026-07-01T17:17:37Z</time>
					</trkpt>
					<trkpt lat="50.342660" lon="4.320320">
						<ele>205</ele>
						<time>2026-07-01T17:18:22Z</time>
					</trkpt>
					<trkpt lat="50.342520" lon="4.320210">
						<ele>205</ele>
						<time>2026-07-01T17:18:43Z</time>
					</trkpt>
					<trkpt lat="50.342420" lon="4.320130">
						<ele>205</ele>
						<time>2026-07-01T17:18:58Z</time>
					</trkpt>
					<trkpt lat="50.342280" lon="4.319960">
						<ele>206</ele>
						<time>2026-07-01T17:19:22Z</time>
					</trkpt>
					<trkpt lat="50.342180" lon="4.319820">
						<ele>206</ele>
						<time>2026-07-01T17:19:40Z</time>
					</trkpt>
					<trkpt lat="50.341990" lon="4.319480">
						<ele>206</ele>
						<time>2026-07-01T17:20:18Z</time>
					</trkpt>
					<trkpt lat="50.341870" lon="4.319280">
						<ele>206</ele>
						<time>2026-07-01T17:20:42Z</time>
					</trkpt>
					<trkpt lat="50.341720" lon="4.319130">
						<ele>206</ele>
						<time>2026-07-01T17:21:05Z</time>
					</trkpt>
					<trkpt lat="50.341630" lon="4.319070">
						<ele>206</ele>
						<time>2026-07-01T17:21:18Z</time>
					</trkpt>
					<trkpt lat="50.341440" lon="4.319010">
						<ele>207</ele>
						<time>2026-07-01T17:21:44Z</time>
					</trkpt>
					<trkpt lat="50.340990" lon="4.318930">
						<ele>207</ele>
						<time>2026-07-01T17:22:45Z</time>
					</trkpt>
					<trkpt lat="50.340890" lon="4.318930">
						<ele>207</ele>
						<time>2026-07-01T17:22:58Z</time>
					</trkpt>
					<trkpt lat="50.340760" lon="4.318940">
						<ele>207</ele>
						<time>2026-07-01T17:23:15Z</time>
					</trkpt>
					<trkpt lat="50.340420" lon="4.319040">
						<ele>206</ele>
						<time>2026-07-01T17:24:02Z</time>
					</trkpt>
					<trkpt lat="50.340200" lon="4.319170">
						<ele>206</ele>
						<time>2026-07-01T17:24:33Z</time>
					</trkpt>
					<trkpt lat="50.340160" lon="4.319170">
						<ele>206</ele>
						<time>2026-07-01T17:24:38Z</time>
					</trkpt>
					<trkpt lat="50.339940" lon="4.319180">
						<ele>205</ele>
						<time>2026-07-01T17:25:08Z</time>
					</trkpt>
					<trkpt lat="50.339680" lon="4.320680">
						<ele>204</ele>
						<time>2026-07-01T17:27:20Z</time>
					</trkpt>
					<trkpt lat="50.339640" lon="4.320900">
						<ele>204</ele>
						<time>2026-07-01T17:27:40Z</time>
					</trkpt>
					<trkpt lat="50.339550" lon="4.321500">
						<ele>203</ele>
						<time>2026-07-01T17:28:32Z</time>
					</trkpt>
					<trkpt lat="50.339410" lon="4.322290">
						<ele>202</ele>
						<time>2026-07-01T17:29:42Z</time>
					</trkpt>
					</trkseg>
				</trk>
			</gpx>